Name,City,Region,Description,Phone,Email,Sort,Link,Military
"""Закарпатський угорський інститут імені Ференца Ракоці ІІ""",Берегове,Закарпатська,"18 жовтня 1993 року на спільному зібранні керівного складу Товариства угорської культури Закарпаття та Закарпатського угорськомовного педагогічного товариства було ухвалено рішення про створення вищого навчального закладу  для угорців Закарпаття умісті Берегово. За підтримкою товариства звернулися  до релігійних громад Закарпаття та депутатів Берегівської міської ради.
13 січня 1994 року був зареєстрований благодійний фонд «У підтримку Закарпатського угорського інституту», головною метою якого стало заснування закладу вищої освіти з угорською мовою навчання та забезпечення його діяльності. Засновниками фонду стали: Товариство угорської культури Закарпаття, Закарпатське угорськомовне педагогічне товариство, Закарпатська реформатська церква, Берегівська міська рада. Представники католицької та греко-католицької церков запевнили засновників фонду у своїй підтримці цього починання, але в той час через об’єктивні причини не змогли взяти участь у роботі фонду. Представники фонду звернулися з проханням про підтримку і допомогу в створенні вищого навчального закладу до Міністерства освіти і культури Угорщини, Бюро у справах закордонних угорців, Ніредьгазького педагогічного інститут імені Дєрдя Бешені. Фонд розробив статут інституту та пакет документів, необхідних для державної реєстрації, і подав їх до Міністерства освіти і науки України, щоб отримати дозвіл на відкриття ВНЗ. Того року дозвіл не було отримано.","+38(031)412-34-62, +38(031)412-45-80, +38(031)412-34-62",foiskola@kmf.uz.ua,Приватна,www.kmf.uz.ua,
Білоцерківський національний аграрний університет,Біла Церква,Київська,"Білоцерківський національний аграрний університет — сучасний освітньо-науковий центр, що готує висококваліфікованих конкурентоспроможних фахівців для сфери аграрного виробництва, надає освітні послуги відмінної якості, дотримується високих стандартів у своїй діяльності.
Освітянські традиції в університеті були закладені у ХVII ст. з часів утворення першого освітнього закладу, який з часом трансформувався у Білоцерківський НАУ.
Університет і вісім відокремлених структурних підрозділів — фахових коледжів — утворюють Регіональний університетський центр.
В теперішній час університет динамічно розвивається, у його структурі — шість факультетів, загальноуніверситетська кафедра здоров’я та фізичної рекреації, центр довузівської підготовки та Інститут післядипломної освіти.
БНАУ — багатопрофільний навчальний заклад, на шести факультетах якого навчається понад 5,5 тис. українських і іноземних студентів за 21 спеціальністю.
На 45 кафедрах університету працюють відомі вчені, досвідчені педагоги, серед яких академіки та члени-кореспонденти НААН, доктори наук, професори, кандидати наук, доценти.
У БНАУ створено належну матеріально-технічну базу для повноцінного забезпечення навчально-виховного процесу.
",(04563) 5-12-88,rector_bnau@btsau.edu.ua,Державна,http://btsau.edu.ua,
Буковинський державний медичний університет,Чернівці,Чернівецька,"Здійснюється підготовка науково-педагогічних кадрів в докторантурі за 6 спеціальностями та аспірантурі — за 27 спеціальностями.
Підготовку та випуск фахівців забезпечує потужний професорсько-викладацький склад університету, який на сьогодні налічує 711 науково-педагогічних працівника, серед яких 97 докторів наук, 74 професори, 417 кандидатів наук, 235 доцентів, 17 Заслужених лікарів України.
З метою покращення якості навчання та забезпечення прозорості навчального процесу в університеті впроваджено систему «Електронний журнал успішності» (ez.bsmu.edu.ua), за розробку якого університет був нагороджений дипломом на Національному виставковому конкурсі «Видатні науково-практичні досягнення в освіті».
В університеті функціонує сервер дистанційного навчання (moodle.bsmu.edu.ua), на якому розміщені електронні навчально-методичні матеріали з усіх дисциплін, які викладаються в університеті, у тому числі англійською мовою.",(0372) 55-37-54,office@bsmu.edu.ua,Державна,www.bsmu.edu.ua,
"Вищий навчальний заклад ""Міжнародний технологічний університет ""Миколаївська політехніка""",Миколаїв,Миколаївська,"Миколаївська філія як факультет культурно-освітньої роботи Київського державного інституту культури, розпочав свою роботу в 1971 році. З 1 лютого 1999 МФ КНУКіМ функціонує як окремий підрозділ у структурі Київського національного університету культури і мистецтв (ректор — Народний артист України, доктор педагогічних наук, професор М.М. Поплавський), який направляє здійснення наукової, освітньої та творчої роботи філії на університетському рівні.
У 1975 році філія випустив 189 перших фахівців, а сьогодні їх чисельність вимірюється тисячами. Більшість працівників сфери культури Миколаївської, Херсонської, Одеської, Кіровоградської, Черкаської областей — випускники філії КНУКіМ.
Основним профілем діяльності навчально-наукового закладу є підготовка фахівців соціально-культурної сфери.
Матеріальна база філії дозволяє забезпечити високоякісний навчальний процес. Філія має три навчальних корпуси з сучасними навчальними аудиторіями. Створено п'ять лабораторій комп'ютерної техніки з локальною комп'ютерною мережею та Інтернет -технологіями. При кожній кафедрі діють спеціалізовані навчальні лабораторії. Для студентів дизайну, образотворчого і декоративно- прикладного напрямку створені творчо- виробничі майстерні та художні студії. Діяльність музичних кафедр повністю забезпечена спеціалізованими аудиторіями, музичними інструментами і технічними засобами. Бібліотека філії налічує близько 90 тис. примірників наукової, навчальної та мистецтвознавчої літератури.","(0512) 56-44-34, (0512) 56-37-77",rector.npi@gmail.com,Приватна,http://mtu.mk.ua/,
"Вищий навчальний заклад ""Університет імені Альфреда Нобеля""",Дніпро,Дніпропетровська,"Університет імені Альфреда Нобеля (м. Дніпро) — приватний вищий навчальний заклад, один з провідних в Україні. Був заснований в 1993 році як «Дніпропетровська академія управління, бізнесу та права», але вже за декілька років виріс до статусу університету. В 2010 році за значний внесок у поширення Нобелівського руху та активну діяльність в розвитку освіти університет отримав ім’я Альфреда Нобеля. Український громадський діяч, доктор економічних наук, професор Борис Іванович Холод (03.01.1941 — 02.11.2021). Метою створення університету стало бажання Бориса Івановича давати сучасним студентам нові знання, які відповідають тим фундаментальним змінам, що відбуваються в світі в XXI столітті. Саме тому інновації — це те, чим пронизані всі процеси Університету ім. А. Нобеля впродовж всіх років його діяльності. ",+38 (0562) 31-24-50,info@duan.edu.ua,Приватний,www.duan.edu.ua,
Вінницький державний педагогічний університет імені Михайла Коцюбинського,Вінниця,Вінницька,"Нова освітньо-наукова програми «Менеджмент та підприємництво» та ОП «291 Міжнародні відносини, суспільні комунікації та регіональні студії». Якісна підготовка фахівців за педагогічними спеціальностями, та також спеціальності 061 Журналістика, 081 Право, 281 Публічне управління та адміністрування, 073 Менеджмент, 017 Фізична культура і спорт, 023 Образотворче мистецтво, декоративне мистецтво, реставрація, 024 Хореографія, 025 Музичне мистецтво, 035 Філологія, 053 Психологія, 091 Біологія та біохімія, 102 Хімія, 111 Математика, 227.01 Терапія та реабілітація (фізична терапія), 231 Соціальна робота, 242 Туризм і рекреація.
Вінницький державний педагогічний університет імені Михайла Коцюбинського — університет у місті Вінниця, який існує з 1912 року. Свою історію він розпочав з невеликого учительського інституту з трирічним терміном навчання, контингент студентів якого не перевищував 100 осіб.",+380 (432) 612812,info@vspu.edu.ua,Державна,www.vspu.edu.ua,
Вінницький національний аграрний університет,Вінниця,Вінницька,"Нині українська земля потребує кваліфікованих аграріїв, людей, які розуміють і поважають її. Саме таких фахівців готує у своїх стінах Вінницький національний аграрний університет.
ВНАУ – потужний осередок освіти і науки із сучасною матеріально-технічною базою, розлогою мережею філій та наукових центрів, широко відомий в Україні та за кордоном.
Університет має у своєму складі: 3 навчально-наукових інститути – агротехнологій та природокористування; економіки та управління; миру, соціальних комунікацій та реабілітації; 8 факультетів: агрономії, садівництва та захисту рослин; екології, лісівництва та садово-паркового господарства; економіки, інформаційних технологій та сфери обслуговування; обліку, фінансів та аудиту; менеджменту та права; інженерно-технологічний; технології виробництва, переробки та робототехніки у тваринництві; ветеринарної медицини.
До структури ВНАУ також входять:  Відокремлений структурний підрозділ ""Технологічно-промисловий фаховий коледж Вінницького національного аграрного університету"", Відокремлений структурний підрозділ ""Ладижинський фаховий коледж Вінницького національного аграрного університету"", Відокремлений структурний підрозділ ""Могилів-Подільський технолого-економічний фаховий коледж Вінницького національного аграрного університету"", Відокремлений структурний підрозділ ""Немирівський фаховий коледж будівництва, економіки та дизайну Вінницького національного аграрного університету"", Відокремлений структурний підрозділ ""Чернятинський фаховий коледж Вінницького національного аграрного університету"".
Аграрний університет здійснює  підготовку за багатоступеневою системою: адаптація випускників шкіл до навчання у виші, підготовка молодших спеціалістів, бакалаврів, магістрів, кандидатів і докторів наук, докторів філософії.","(0432) 437230, 560313;",rector@vsau.org,Державна,https://vsau.org,
Вінницький національний технічний університет,Вінниця,Вінницька,"Вінницький національний технічний університет (ВНТУ) створено Постановою Кабінету Міністрів України № 244 від 20.04.94 року на базі Вінницького політехнічного інституту, заснованого на державній формі власності і підпорядкованого Міністерству освіти і науки, молоді та спорту України. Указом Президента України № 868/2003 від 25 серпня 2003 року Університету надано статус національного.","(043)256-08-48, (043)232-57-18, (043)246-57-72",vntu@vntu.edu.ua,Державна,www.vntu.edu.ua,
"Волинський інститут імені В'ячеслава Липинського Приватного акціонерного товариства ""Вищий навчальний заклад ""Міжрегіональна Академія управління персоналом""",Луцьк,Волинська,"До послуг студентів два комп'ютерних класи, бібліотека з читальним залом. Навчальні кабінети та лабораторії обладнані новітнім устаткуванням, що дає змогу використовувати в навчанні сучасні інформаційні технології, у тому числі комп'ютерну мережу Інтернет. Проводяться соціально-психологічні тренінги з ділового спілкування, надаються рекомендації з вибору спеціальностей для абітурієнтів, при цьому враховується індивідуальність особи, характер, інтереси та здібності.
Волинський інститут імені В'ячеслава Липинського приділяє велику увагу розвитку міжнародних зв'язків, тісно співпрацюючи з вищими навчальними закладами Польщі - Вища школа педагогіки і управління (м. Рики), Вища школа ім.Б.Янського, філія у Хелмі, Вища школа ім.Ромуальда Кудмінського у Варшаві (відділ у Стальовій Волі). Спільні науково-практичні конференції, наукові читання, Ювеналії (День студента у Польщі), мистецькі та літературні зустрічі є підтвердженням такої співпраці. ","(095) 384-24-82, (096) 054-52-44",maup_lutsk@ukr.net,Приватна,http://volyn.maup.com.ua,
Волинський національний університет імені Лесі Українки,Луцьк,Волинська,"Волинський державний університет імені Лесі Українки засновано в 1993 році у зв’язку з реорганізацією Луцького педагогічного інституту імені Лесі Українки. Перший вищий навчальний заклад Волині — Луцький державний учительський інститут почав діяти 1940 року. Функціонування навчального закладу, перерване Другою світовою війною, відновлено в 1946 році. 25 вересня 1951 року на базі Луцького державного учительського інституту створено Луцький державний педагогічний інститут, якому в 1952 році присвоєно ім'я видатної української письменниці, інтелектуалки Лесі Українки. На той час у ЗВО було два факультети: історико-філологічний та фізико-математичний. 1959 року розпочав роботу факультет підготовки вчителів початкових класів, у 1962 — факультет фізичного виховання, у 1975 — природничо-географічний факультет, у 1981 — факультет підвищення кваліфікації керівників шкіл (з 1993-го — факультет післядипломної освіти).
У 1969 році історико-філологічний факультет реорганізовано в історичний та філологічний факультети.",0-(332) 24-00-18,post@vnu.edu.ua,Державна,vnu.edu.ua,
"Державний заклад ""Луганський державний медичний університет""",Рівне,Рівненська,"1994 рік - Відкриті І та ІІ медичні факультети, а також факультет медичних сестер-бакалаврів із вищою освітою. Відкрита кафедра анестезіології та реаніматології. Закінчено будівництво 9-поверхового гуртожитку;
1995 рік - Університет атестований за вищим ІV рівнем акредитації. Відкрита кафедра пропедевтики дитячих хвороб;
1996 рік - Відкрито підготовче відділення для іноземних студентів;
1997 рік - Закінчення будування блоку навчального корпусу, в якому розміщені кафедри анатомії людини, медичної біології, гістології, цитології та ембріології, нормальної фізіології;
1998 рік - Відкриття фармацевтичного і стоматологічного факультетів, факультету медичних сестер-бакалаврів із вищою освітою з подовженим навчальним днем (вечірній). Відкриття кафедри організації та економіки фармації, кафедри стоматології. Закінчення будівництва аудиторного блоку навчального корпусу. Початок видавництва науково-практичних журналів та збірників, які затверджені ВАК України «Український медичний альманах», «Проблеми екологічної та медичної генетики і клінічної імунології», «Актуальні проблеми акушерства і гінекології, клінічної імунології та медичної генетики»;
1999 рік - Відкриття кафедри фармацевтичної хімії. Будування блоку навчального корпусу, в якому розміщуються кафедри інформатики та медичної апаратури, фармакології, медичної хімії, фармацевтичної хімії та фармакогнозії, а також університетський центр;
2000 рік - Лауреатами Державної премії України в галузі науки і техніки за розробку і впровадження медичної системи життєзабезпечення постраждалих при техногенних аваріях і катастрофах стала група вчених на чолі із заслуженим діячем науки і техніки України, д.мед.н. професором Можаєвим Геннадієм Олександровичем. Побудовані університетська медична бібліотека «Палац книги» та гараж на 10 автомашин. Започаткуване видання «Український журнал екстремальної медицини ім. Г.О. Можаєва», яке було затверджено ВАК України;
",+380674530506,lsmu@lsmu.edu.ua,Державна,http://www.lsmu.edu.ua,
Державний заклад «Південноукраїнський національний педагогічний університет імені К.Д. Ушинського»,Одеса,Одеська,"Університет розпочав своє існування з педагогічного інституту,  який був відкритий в місті Одесі 2-го травня 1817 року, як окремий структурний підрозділ при Рішельєвському ліцеї.
Наразі університет є флагманом педагогічної освіти на півдні України, де успішно здійснюється підготовка студентів, аспірантів та докторантів за більш, ніж п'ятдесятьма спеціальностями. За роки існування в його стінах було підготовлено понад ста тисяч фахівців для системи освіти нашої країни та інших держав.
Освітні послуги надаються на 8 факультетах та навчально-науковому інституті фізичної культури, спорту та реабілітації, окрім цього в університеті є підготовчі курси для абітурієнтів. 
","+38(048)732-51-03, +38(048)723-40-98",pdpu@pdpu.edu.ua,Державна,www.pdpu.edu.ua,
"Державний університет ""Житомирська політехніка""",Житомир,Житомирська,"Для забезпечення можливості розвитку професійної кар’єри, працевлаштування, стажування, організації власної справи, у ЖДТУ створено Центр розвитку професійної кар’єри.
Реалізується співпраця за моделлю «студент ЖДТУ — роботодавець-партнер», запроваджено стажування молодих фахівців на підприємствах-лідерах регіону, у глобальних компаніях, долучено до створення спільних продуктів, проектів управління змінами, програм соціальної відповідальності бізнесу, що дає змогу використовувати отримані знання на практиці.
Функціонування моделі дуальної освіти в ЖДТУ дозволяє студентам заявляти про себе й реалізовувати інноваційний потенціал — частина знань отримується в аудиторіях, навичок — на підприємствах-партнерах; партнери ЖДТУ інвестують у молодь, призначаючи стипендії роботодавців, оплачуючи стажування і практики, надають пріоритет працевлаштуванню і набору команд на нові проекти і розробку продуктів.
На базі ЖДТУ проводяться тренінги з розвитку м’яких навичок, компетенцій-2030, коучинг-сесії для студентів, слухачів, персоналу компаній-замовників.
Для розвитку інноваційної екосистеми регіону в ЖДТУ створено перший в регіоні бізнес-інкубатор. Навчання резидентів — учасників стартап-команд є безкоштовним, проводиться у вільний від навчання час за зручним графіком із залученням найкращих спікерів світу. Найкращі стартапи студентів презентуються на ярмарках світового рівня — iForum, Innvation Market, YEP Demo Days in UnitCity та ін.
CreativePoliHUB є платформою для розвитку науково-інноваційного та творчого потенціалу студентів ЖДТУ.",(0412) 24-14-22,rector@ztu.edu.ua,Державна,https://ztu.edu.ua,
Дніпровський державний університет внутрішніх справ,Дніпро,Дніпропетровська,"Дніпровський державний університет внутрішніх справ є закладом вищої освіти МВС України зі специфічними умовами навчання. За час свого існування заклад пройшов шлях від Дніпропетровської спеціальної середньої школи міліції до Дніпропетровського державного університету внутрішніх справ, який було засновано 8 вересня 2005 року. У травні 2024 року наказом МВС від 08.05.2024 № 298 університет було перейменовано на Дніпровський державний університет внутрішніх справ.
На сьогодні ДДУВС є одним із провідних закладів вищої освіти у системі МВС. Кількість випускників у статусі закладу вищої освіти – понад 35 тисяч. Основними навчальними підрозділами є 2 навчально-наукових інститути, 2 факультети, інститут післядипломної освіти та заочного навчання. Освітню та наукову діяльність університету забезпечують 20 кафедр. Університет відповідно до ліцензії проводить підготовку здобувачів вищої освіти за спеціальностями: 051 Економіка, 053 Психологія, 073 Менеджмент, 081 Право, 262 Правоохоронна діяльність, 281 Публічне управління та адміністрування, 291 Міжнародні відносини, суспільні комунікації та регіональні студії. Здобувачам запропоновані загально-юридичні дисципліни та спеціальні дисципліни, які викладаються виключно у закладах вищої освіти МВС. ДДУВС забезпечує повний цикл підготовки.",756-45-45,info@dduvs.edu.ua,Державна,dduvs.edu.ua,
Дніпровський національний університет імені Олеся Гончара,Дніпро,Дніпропетровська,"Активні спроби відкриття університету в місті почалися фактично лише з кінця ХІХ століття. На цей час Катеринослав перетворився на одне з найбільших міст промислового Півдня. Було очевидним, що демографічний і промисловий потенціал губернського центру, який досі залишався науковою провінцією, потребував значної кількості кваліфікованих кадрів. Отож, ідея створення катеринославського університету вітала в повітрі. Найбільшими лобістами ідеї заснування університету в Катеринославі були представники наукового середовища.
Тривалий час заснуванню університету перешкоджали історичні події: революція 1905−1907 рр., Перша світова війна 1914−1918 рр., початок революції 1917−1921 рр.. Все це об’єктивно зводило нанівець будь-які відповідні ініціативи.
Тим не менш, активні прибічники ідеї заснування університету використовували будь-які можливості для досягнення своєї мети. Лобістом саме такого проєкту виступала передовсім Катеринославська міська дума. Так, під час евакуації навчальних закладів з театру бойових дій у період Першої світової війни, представники міського самоврядування декілька разів подавали клопотання про перенесення одного з евакуйованих університетів до Катеринослава. Утім, ані сильна матеріальна база, ані найкращі викладачі Наддніпрянщини не забезпечили успіху такій ініціативі. Варшавський університет (Польща) був евакуйований до Ростова-на-Дону, Юр’ївський університет (Прибалтика), за який наукова громада Катеринослава боролася до останнього, – до Пермі.
Незважаючи на підтримку імперським урядом ідеї заснування в Катеринославі політехнічного інституту, міська дума продовжила боротьбу саме за університетську освіту у Надпоріжжі, виступаючи за відкриття в губернському центрі окремих медичного та природничого факультетів як основи майбутнього університету.","(056) 374-98-01, (056) 374-98-22",cdep@dnu.dp.ua,Державна,www.dnu.dp.ua,
"Заклад вищої освіти ""Академія рекреаційних технологій і права""",Луцьк,Волинська,"ЗВО «Академія рекреаційних технологій і права» – наймолодший в Україні заклад вищої освіти, створений 5 червня 2014 року. Незважаючи на свій молодий вік Академія є досить потужним закладом вищої освіти, який відкритий для молоді з різнорівневою освітньою підготовкою, диференційованих соціальних можливостей і різного стану здоров’я. З ініціативи керівництва, засновників здійснюється фінансова підтримка талановитих студентів, з малозабезпечених сімей, сиріт та студентів з особливими потребами. Також надається вагома підтримка учасникам бойових дій та їх дітям, студентам-відмінникам, молодим науковцям, спортсменам, активним учасникам студентського самоврядування, талановитим та обдарованим студентам, досягнення яких зміцнюють позитивний імідж Академії.
В Академії ведеться підготовка за денною та заочною формами навчання (з елементами дистанційного) за ліцензованими 7-ма освітньо-професійними програмами підготовки бакалаврів та 3-ма магістрів.
Навчається понад 1000 студентів.",0332280197,academrtp@gmail.com,Приватна,www.artip.com.ua,
Запорізький національний університет,Запоріжжя,Запорізька,"Запорізький національний університет це заклад вищої освіти державної форми власності, літопис якого ведеться майже 90 років. Ще в 40-х роках минулого століття він посів одне з провідних місць серед педагогічних закладів України і досі залишається на позиції лідера освітніх послуг нашої держави.
До структури університету входить 12 факультетів, Інженерний навчально-науковий інститут (утворений після приєднання Запорізької державної інженерної академії до Запорізького національного університету), а також відокремлений структурний підрозділ – Економіко-гуманітарний факультет у м. Мелітополі, 4 коледжі – Економіко-правничий фаховий коледж ЗНУ, Фаховий коледж бізнесу та харчових технологій, Гідроенергетичний фаховий коледж та Металургійний фаховий коледж ; потужна наукова бібліотека, Школа Конфуція із вивчення китайської мови, Центр польської мови і культури ім. Яна ІІІ Собєського, Міжнародний Шекспірівський центр, Центр післядипломної освіти, Центр інтенсивного вивчення іноземних мов, Гете-Інститут та інші мовні освітні центри.
В університеті діють курси підготовки до національного мультипредметного тесту (НМТ), зовнішнього незалежного оцінювання (ЗНО) з різних предметів та до творчих конкурсів.
ЗНУ здійснює підготовку фахівців за ступенями «Бакалавр» за 95 освітніми програмами та «Магістр» – 86 освітніми програмами. Підготовка кадрів вищої кваліфікації здійснюється в аспірантурі та докторантурі. У ЗНУ функціонує 7 спеціалізованих вчених рад, з них – 6 докторських (з історичних, філологічних, філософських, юридичних, економічних і педагогічних наук), 1 – кандидатська (з фізико-математичних наук).","(061)228-75-00, (061)764-45-46",znu@znu.edu.ua,Державна,www.znu.edu.ua,
Західноукраїнський національний університет,Тернопіль,Тернопільська,"Західноукраїнський національний університет (ЗУНУ) — заклад вищої освіти України IV-го рівня акредитації в м. Тернополі. Університет здійснює підготовку студентів на всіх рівнях вищої освіти (молодший спеціаліст, бакалавр, магістр). ЗУНУ є підписантом Великої хартії університетів та членом Асоціації європейських університетів.
Університет у рейтингах. У 2021 році Західноукраїнський національний університет посів 19 місце серед двохсот університетів України у рейтингу закладів вищої освіти «Топ 200 Україна» та 32 місце серед 242 закладів вищої освіти у консолідованому рейтингу закладів вищої освіти України.
За результатами оцінки якості наукової діяльності університетів світу, що формується на основі аналізу цитованості вчених базою Google Scholar, здійсненого Webometrics, ЗУНУ у п'ятірці лідерів серед українських закладів вищої освіти. У вебометричному рейтингу університетів світу Webometrics Ranking Web of Universities (Edition 2021.2.1) університет посідає 20-те місце серед 314 українських закладів вищої освіти, у міжнародному рейтингу uniRank — 15 місце.",+380352517575,rektor@wunu.edu.ua,Державна,https://www.wunu.edu.ua/,
"Івано-Франківський навчально-науковий юридичний інститут Національного університету ""Одеська юридична академія""",Івано-Франківськ,Івано-Франківська,"Сьогодні Національний університет «Одеська юридична академія» — це стабільно висока якість освіти і затребуваність випускників на ринку праці, це визнаний міжнародний авторитет і великі академічні зв'язку з кращими вузами світу. Наш університет динамічно розвивається і вдосконалюється, ми впроваджуємо в освітню діяльність новітні технології, щоб відповідати постійно зростаючим стандартам освіти. Наш навчальний заклад є членом Асоціації європейських університетів і Європейської Асоціації публічного права.
Щорічно сотні наших студентів, аспірантів і викладачів виїжджають за кордон, де продовжують навчання або проходять професійне стажування в кращих університетах світу, міжнародних організаціях, урядових установах зарубіжних країн. Наш університет регулярно відвідують з офіційними візитами іноземних делегацій, для студентів читають лекції відомі зарубіжні професора, видатні юристи, дипломати і політики. Всі бажаючі студенти мають можливість з першого курсу відвідувати лекції з правових дисциплін англійською, німецькою та французькою язиках. Завдяки відповідності наших освітніх програм європейським стандартам, диплом Національного університету «Одеська юридична академія» визнається за кордоном, що відкриває для наших випускників можливості працевлаштування в міжнародних інституціях та іноземних компаніях.
Навчання в Національному університеті «Одеська юридична академія» — це не тільки професійні знання і диплом міжнародного зразка, але ще і можливість всебічного особистісного розвитку студентів. У нашому університеті створено Центр культури, де талановиті студенти можуть творчо розвиватися. Великі можливості розвитку і у юних спортсменів — два стадіони, спортивні та тренажерні зали — у нас створені всі умови для того, щоб студенти могли підтримувати себе в прекрасній формі і готуватися до змагань. У нашому навчальному закладі функціонує Центр тестування на поліграфі, в якому сертифіковані поліграфологи навчають майбутніх слідчих особливостям роботи з «детектором брехні».",(067)344-67-47,dekanat@iflaw.institute,Приватна,https://www.iflaw.edu.ua,
Ізмаїльський державний гуманітарний університет,Ізмаїл,Одеська,"До послуг студентів: 2 гуртожитки. В університеті сформована модель безперервної  підготовки фахівців усіх ступенів освіти та науковців: бакалаврів, магістрів, докторів філософії. 
Ізмаїльський державний гуманітарний університет — центр освіти, науки і культури Українського Подунав'я — засновано в 1940 році. 
Серед випускників університету відомі в Україні та за її межами вчителі, вчені, письменники, спортсмени, відомі політичні та державні діячі.
Останнім часом в університеті були проведені науково-методична і виховна роботи: вдосконалилася структура навчального закладу, якісно покращився кадровий склад, велися нові спеціальності і спеціалізації, розвинулася матеріально-технічна база, налагодилося співробітництво з відомими науковими центрами й університетами України та Європи.
Сьогодні ІДГУ активно працює над проблемами широкого застосування в навчальному процесі освітніх інформаційних ресурсів, упровадження існуючих і створення нових інформаційно-комунікаційних технологій, забезпечення інтеграції закладу вищої освіти в європейський освітній, науковий та інформаційний простір. 
Стратегічний напрям діяльності Ізмаїльcького дeржавного гуманітаpного універcитету — цe розвиток сучаcної гуманітаpної оcвіти тa підготoвка нa цій оcнові студентcької молoді дo твоpчої робoти в новітніx соціокультурниx умоваx.",+38 (04841) 6-30-01; +38 (094) 95-65-001,idgu@ukr.net,Державна,http://www.idgu.edu.ua/,
Карпатський університет імені Августина Волошина,Ужгород,Закарпатська,"Університет було створено рішенням засновника – Бедь Віктора Васильовича 20 квітня 2001 року як  приватний заклад вищої освіти – багатогалузевий класичний заклад вищої освіти, що провадить інноваційну освітню діяльність за усіма ступенями вищої освіти та здійснює навчально-виховний процес і наукову діяльність відповідно до українських законів та Статуту Університету.
Сучасну повну назву – КАРПАТСЬКИЙ УНІВЕРСИТЕТ ІМЕНІ АВГУСТИНА ВОЛОШИНА – заклад отримав 23 січня 2006 року. Скорочена назва – КаУ. Він є правонаступником Української богословської академії імені святих Кирила і Мефодія. До навчального комплексу КаУ входить і Ужгородський гуманітарно-економічний фаховий коледж імені Августина Волошина.
Здобувачам вищої освіти Університет пропонує широкий спектр освітньо-виховних послуг у межах українського ліцензування та за міжнародною програмою подвійних дипломів. Навчальний процес забезпечують кваліфіковані науково-педагогічні кадри, які складають структуру гуманітарно-економічного факультету, чотирьох кафедр та Інституту міжнародної освіти. Науково-дослідну частину Університету забезпечують п’ять науково-дослідних інститутів.",+38-067-478-55-29; +38-099-369-33-77;,E-mail: kau7av@gmail.com,Приватна,www.kau.com.ua,
Київський національний лінгвістичний університет,Київ,Київська,"Київський національний лінгвістичний університет (КНЛУ) – вищий
навчальний заклад України. Засновано 30 березня 1948 року як Київський державний педагогічний інститут іноземних мов. Розташований у Києві, Печерський район. Має статус автономного навчального закладу. У просторіччі  «ін'яз».",044) 287-33-72,knlu@knlu.edu.ua,Державна,http://www.knlu.edu.ua,
Київський національний університет будівництва і архітектури,Київ,Київська,"Провідний вищий навчальний заклад України в галузі підготовки фахівців з будівельних спеціальностей. Має найвищий IV рівень акредитації. Авторитет Університету ґрунтується на вдалому поєднанні багатьох традицій, що складалися впродовж майже 90-літнього навчального досвіду і здобуткам вчених університету.
Київський Національний Університет Будівництва і Архітектури заснований 17 квітня 1930 року. Тоді він носив назву Київського будівельного інституту. Його створили на базі Київського архітектурного та художнього інститутів, кафедри будівельних наук КПІ і Київського будівельного технікуму.",38 (044) 248-49-05; 248-49-01,knuba@knuba.edu.ua,Державна,http://www.knuba.edu.ua,
Київський національний університет імені Тараса Шевченка,Київ,Київська,"Київський національний університет імені Тараса Шевченка сьогодні – це класичний університет дослідницького типу, провідний сучасний науково-навчальний центр України. Високий статус класичного університету дослідницького типу підтверджується чисельними науковими перемогами вчених-співробітників університету, досягнення яких відзначені державними і міжнародними нагородами.
Університет засновано в 1834 році.
До складу Університету входять: геологічний і зоологічний музеї, Музей історії університету, міжфакультетський лінгвістичний музей, Ботанічний сад імені академіка О.В. Фоміна, Канівський природний заповідник, Астрономічна обсерваторія, Видавничо-поліграфічний центр ""Київський університет"" і Наукова бібліотека ім. М. Максимовича. Загальний фонд бібліотеки зараз становить 3.270.663 примірників документів.",(044) 239-33-33; 044 521-35-61,abit@knu.ua; office@knu.ua,Державна,https://knu.ua,
"Київський національний університет театру, кіно і телебачення імені І.К. Карпенка-Карого",Київ,Київська,"Київський національний університет театру, кіно і телебачення імені І. К. Карпенка-Карого – це один з провідних закладів мистецької освіти, історія діяльності якого налічує понад 100 років.
Навчальний заклад є активним учасником загального процесу гуманітарного розвитку суспільства, збереження і примноження духовних цінностей, інтеграції України в європейський і світовий культурний простір.
Університет є багатопрофільним вищим мистецьким навчальним закладом, який здійснює підготовку професійних кадрів за спеціальностями «Сценічне мистецтво» та «Аудіовізуальне мистецтво та виробництво». До його складу входять Інститут екранних мистецтв та факультет театрального мистецтва.
На шістнадцяти кафедрах Університету сьогодні працюють видатні майстри театрального та кіно-телемистецтва, серед яких художні керівники, головні режисери та провідні актори академічних театрів, кіно- і телережисери, академіки і члени-кореспонденти Академії мистецтв України.",(044) 272-10-32,rector@knutkt.edu.ua,Державна,www.knutkt.edu.ua,
Київський національний університет технологій та дизайну,Київ,Київська,"Київський національний університет технологій та дизайну (КНУТД) — це багатопрофільний навчально-науково-інноваційний комплекс із широко розвиненою інфраструктурою і сучасною матеріально-технічною базою, який здійснює багаторівневу підготовку кваліфікованих фахівців різних спеціальностей. Університет  є флагманом у сфері підготовки фахівців для галузей легкої та хімічної промисловості, індустрії моди, бізнесу, художньо-технічного моделювання та дизайну промислових виробів, мистецтва, економіки та побутового сервісу, юриспруденції та ін. Це один із найстаріших в Україні закладів вищої освіти технологічного профілю. Університет має низку унікальних наукових шкіл, які провадять науково-інноваційну діяльність і визнані як в Україні, так і за її межами.
Київський національний університет технологій та дизайну засновано 17 квітня 1930 року наказом Вищої ради народного господарства №1240 як Інститут шкіряної промисловості. Зазначену дату можна вважати точкою відліку історії університету в межах формального підходу, адже дослідження витоків підготовки спеціалістів свідчать, що фактично її слід було б віднести до початку 19 ст., коли розпочалась професійна підготовка ремісників, які виробляли товари із шкіри, хутра, текстилю кустарним і кооперативним способами. Таким чином, ця тема ще чекає на більш ґрунтовні дослідження.",(044) 2800512,knutd@knutd.edu.ua,Державна,knutd.edu.ua,
Кременецька обласна гуманітарно-педагогічна академія ім. Тараса Шевченка,Кременець,Тернопільська,"Учительський інститут діяв до початку окупації Кременця фашистськими військами. Його роботу було відновлено після звільнення міста: навчальний рік 1 вересня 1944 року розпочали 150 студентів, які навчалися на мовно-літературному, історичному, природничо-географічному і фізико-математичному факультетах. Навчальний процес забезпечували 36–39 викладачів, серед яких лише один мав науковий ступінь.
У 1950 році учительський інститут реорганізовано в педагогічний з тими ж факультетами, лише було відкрито факультет фізичного виховання, але ліквідовано історичний факультет. Зріс контингент студентів до 1000 чоловік на стаціонарному відділенні та до 2000 чоловік – на заочному. Зміцнився науково-кадровий потенціал: на 11 кафедрах працювали 112 викладачів, з яких на початку 60-х років більше 20 мали наукові ступені та вчені звання. Випуск фахівців складав від 90 до 240 чоловік на стаціонарі та від 100 до 360 – на заочній формі навчання. Свідченням потужних можливостей навчально-матеріальної бази інституту була його бібліотека – порядку 250 тисяч книг.
У 1969 році інститут переведено до Тернополя, де на сьогодні він функціонує в статусі Національного педагогічного університету імені Володимира Гнатюка, а в його навчальних корпусах відкрито Кременецьке педагогічне училище, якому в 1989 році було присвоєне ім’я Тараса Шевченка. Педучилище готувало фахівців двох спеціальностей: вчителів праці та креслення (контингент – 120 учнів) та вихователів дошкільних закладів (контингент – 60 учнів). Штат викладачів складав 19 чоловік. На завершення свого існування – в 1990/91 навчальному році – училище збільшило контингент учнів до 2000 чоловік, штат викладачів – до 128, а випуск фахівців складав 540 чоловік на денному відділенні та 160 – на заочному.","03546 2 19 91, 2 44 92",kogpa_docs@ukr.net,Комунальна,kogpa.edu.ua,
Кременчуцький льотний коледж Харківського національного університету внутрішніх справ,Кременчук,Полтавська,"1 липня 2020 року Кременчуцький льотний коледж відзначив свій 60-річний ювілей. Як навчальний заклад його було створено у 1960 році під назвою льотного училища цивільного повітряного флоту. Наказом від 28.11.1991 р. № 231 навчальний заклад було прийнято до системи Міністерства освіти і науки України. З 24.06.1993 р. наказом № 97 цього Міністерства він перейменований під назвою “льотний коледж”. Згідно Розпорядження Кабінету Міністрів України від 13 березня 2019 року № 186-р Кременчуцький льотний коледж передано до сфери управління Міністерства внутрішніх справ України шляхом його приєднання до Харківського національного університету внутрішніх справ як відокремленого структурного підрозділу. Коледж є одним із провідних авіаційних державних вищих навчальних закладів України, а в галузі підготовки вертолітних кадрів йому взагалі немає рівних.
У різні роки в коледжі здобули путівку в небо видатні космонавти О. А. Леонов, П. І. Клімук, В. В. Аксьонов, А. С. Левченко, Герої Радянського Союзу М. М. Мельник, Б. В. Лялин, А. Б. Гардапхадзе. За роки існування в коледжі пройшли підготовку більше 60 тисяч фахівців з країн СНД і близько 7 тисяч громадян з 77 інших країн світу, зокрема Австралії, Австрії, Великобританії, Германії, Ємену, Індії, Канади, Китаю, Мозамбіку, Перу, Польщі, США, Фінляндії, Японії тощо. У коледжі освоєно 14 типів повітряних суден, з яких 12 типів – гелікоптери славетних конструкторських бюро Міля, Камова, а також надлегкий вертоліт українського виробництва АК1-3.
У 2003 році коледж ввійшов до Єдиної навчально-методичної системи Національного авіаційного університету і був його навчально-науковим підрозділом.",+38 (05366) 31131,klk.univd@gmail.com,Державна,http://klk.univd.edu.ua/uk,
Кременчуцький національний університет імені Михайла Остроградського,Кременчук,Полтавська,"За останні роки університет набув широкого визнання у суспільстві та державі. На сьогодні КрНУ посідає третє місце серед ВНЗ України за студентською науковою робою; третє місце серед вишів Полтавської області; 60-те місце у консолідованому рейтингу ВНЗ за даними інтернет-ресурсу OSVITA.UA і 38-те місце у ТОП-200 кращих ВНЗ України. За період з 2011 року Університет отримав багато нагород (Гран-прі «Лідер вищої освіти», Сертифікат «Якість наукових публікацій»; Гран-прі «Лідер міжнародної діяльності»; Гран-прі «Лідер наукової та науково-технічної діяльності»).
Університет поступово набуває визнання у світі, що підтверджують різні світові рейтинги у 2019 роц: QS TOP 250 Universitiesof Emerging Europe & Central Asia(19-темісце); Transparent Ranking of UniversitiesGOOGLE SCHOLAR Citation(75-те місце); WEB of Universities WEBOMETRICS (65-те місце); Global University Ranking uniRank™ (34-те місце);Міжнародний рейтинг ЗВО U-Multirank (18-те місце);Round University Ranking (4-те місце)
У 2019 році Національним агентством із забезпечення якості вищої освіти вперше було здійснено аналіз річних звітів і даних самоаналізу національних ЗВО, під час якого вивчалося виконання університетами обов’язкових порівняльних та преміальних критеріїв. За інтегральним показником порівняльних критеріїв серед 113 національних університетів Кременчуцький національний університет посів 11 місце.",+38(0536) 75-81-86,office@kdu.edu.ua,Державна,www.kdu.edu.ua,
Луцький національний технічний університет,Луцьк,Волинська,"Висококласні фахівці із 7 факультетів та 36 різнопрофільних кафедр готові відкривати молодому поколінню шлях до успіху, постійно вдосконалюватися і гідно представляти українську науку на міжнародній арені. Наші студенти мають нагоду обрати класичну технічну чи економічну спеціальність, а також підсилити свої можливості за допомогою гуманітарних наук, опанувавши іноземну мову й тонкощі юриспруденції.
Ми віримо у власні цінності, а тому будуємо полюс росту та розвитку для кожного!
У нас функціонує центр ділового студента «Volyn Business Hub», який сприяє працевлаштуванню випускників і підвищує їхню конкурентоспроможність на ринку праці.
Ми створили юридичну клініку «Veritas», що надає студентам можливості набуття навичок практичної діяльності за фахом та розширює їхні професійні можливості.
У нас є можливість реалізувати себе у науковій царині і продемонструвати власні знання та вміння не лише на Всеукраїнському рівні, але й далеко за кордоном. Довіряючи компетентності вітчизняних викладачів, студенти можуть паралельно здобути досвід іноземних науковців, долучившись до програми подвійного диплому, а відтак отримати диплом нашого ЗВО та закордонного університету. Так, ми маємо більше 80 партнерів із 25 країн світу.
ЛНТУ пропонує чимало варіантів проходження практики на передових підприємствах області з перспективою подальшого працевлаштування, а також можливість випробувати дуальну освіту, що дозволяє паралельно навчатися і працювати.
","(0332) 74-61-03, 74-61-11",rector@lntu.edu.ua,Державна,https://lntu.edu.ua,
Львівська національна академія мистецтв,Львів,Львівська,"Львівська національна академія мистецтв (ЛНАМ) представляє один з найбільш цікавих напрямів вищої освіти України, а саме — професійну підготовку і виховання творчих особистостей у галузях образотворчого і декоративно-прикладного мистецтва, дизайну, реставрації, культурології, мистецтвознавства та менеджменту мистецтва. Ідея створення у Львові мистецької академії зародилася понад сто років тому, а тому сучасний навчальний заклад є спадкоємцем кращих традицій і надбань художньої освіти, започаткованої у Львові ще в середині 19 ст. Свою історію він веде від Художньо-промислової школи (1876 р.), Вільної академії мистецтв (1905 р.), Мистецької школи Олекси Новаківського (1923 р.), інших навчальних закладів, у системі яких апробувалася академічна освіта. У цих мистецьких закладах навчалися, а згодом і викладали видатні митці, вихованці провідних європейських академій Іван Труш, Осип Курилас, Антон Манастирський, Олена Кульчицька, Григорій Смольський, Святослав Гординський та багато інших.",(032) 276 14 77,office@lnam.edu.ua,Державна,www.lnam.edu.ua,
Львівська національна музична академія імені М.В.Лисенка,Львів,Львівська,"Львівська національна музична академія імені М.В. Лисенка (надалі –  Академія) – один з найстаріших в Європі музичних навчальних закладів.
З 1844 року Академія (під назвою «Інститут музики») стала повноцінно функціонувати у Львові як багатопрофільний музичний навчальний заклад, який очолив син геніального австрійського класика Вольфганга Амадея Моцарта – Франц-Ксавер. Керівниками закладу впродовж багатьох років були видатні музиканти світового рівня, а саме: Йоган Рукгабер, Кароль Мікулі, Мєчислав і Адам Солтиси, Анна Нєментовська, Анатоль Вахнянин, Станіслав Людкевич, Василь Барвінський, Микола Колесса, Зенон Дашак та Марія Крушельницька.  
Зараз очолює Академію – Народний артист України, Академік національної Академії мистецтв України, доктор філософії, професор Ігор Пилатюк. ","(032) 235 82 68, 274 31 06",lnma@lnma.edu.ua,Державна,http://lnma.edu.ua,
Львівський державний університет фізичної культури імені Івана Боберського,Львів,Львівська,"Матеріально-технічна база: 3 гуртожитки, студентська їдальня, 3 навчальні корпуси, комп'ютерні класи, бібліотека, навчально-спортивний комплекс, стадіон з високоякісним футбольним газоном і сучасним покриттям легкоатлетичних бігових доріжок та секторами для стрибків, метань і штовхань, універсальний манеж, спеціалізовані зали для фехтування, боксу і боротьби, відкриті майданчики для спортивних ігор, гімнастичні зали.
Львівський державний університет фізичної культури імені Івана Боберського є провідним ЗВО фізкультурного профілю у Західній Україні з давніми традиціями у підготовці фахівців з фізичної культури і спорту.
З 1998 року ЛДУФК є членом Європейської мережі ЗВО освіти фізкультурного профілю та з 1999 року — членом міжнародної ради фізичного виховання, рекреації та спортивного танцю. Кращі студенти ЛДУФК мають можливість навчатися в ЗВО Євросоюзу. На базі ЛДУФК працюють комплексні наукові групи збірних команд України з різних видів спорту.","032 255 32 01,272 75 61",evgenprystupa@gmail.com,Державна,http://www.ldufk.edu.ua,
"Львівський інститут Приватного акціонерного товариства ""Вищий навчальний заклад ""Міжрегіональна Академія управління персоналом""",Львів,Львівська,"Львівський інститут ПрАТ «ВНЗ «МАУП» є відокремленим структурним підрозділом Приватного акціонерного товариства «Вищий навчальний заклад «Міжрегіональна Академія управління персоналом» (м. Київ).
Історія становлення Львівського інституту бере початок у 1998 році в рамках співпраці Львівського центру науково-технічної та економічної інформації та Міжрегіональної Академії управління персоналом у м. Києві. Першим результатом такої співпраці стало відкриття на базі ЛвЦНТЕІ навчально-консультаційного центру дистанційного навчання МАУП, в якому отримали другу вищу освіту студенти за спеціальностями: «Фінанси», «Облік і аудит», «Управління трудовими ресурсами».
Львівський інститут ПрАТ «ВНЗ «МАУП» один з найбільших регіональних підрозділів Приватного акціонерного товариства «Вищий навчальний заклад «Міжрегіональна Академія управління персоналом».",(0322) 294 0081,limaup@iapm.edu.ua,Приватна,li-maup.edu.lviv.ua,
Львівський національний медичний університет імені Данила Галицького,Львів,Львівська,"Львівський національний медичний університет імені Данила Галицького – один із провідних медичних університетів, що має давню історію і славні традиції. Підпорядкований Міністерству охорони здоров'я України.
Сьогодні Університет – це: 
студентоорієнтований осередок освіти, із сучасними освітніми програмами, які постійно вдосконалюються та інтегрується до потреб сьогодення; 
власні наукові дослідження та участь у міжнародних наукових проєктах;
широке коло українських та міжнародних партнерів задля створення можливостей якісної підготовки студентів та інших здобувачів освіти.
Історія. Львівський національний медичний університет імені Данила Галицького – найстарший медичний навчальний заклад в Україні.  Він бере свій початок від медичного факультету Львівського університету, утвореного в 1784 році згідно з рескриптом імператора Австрії Йозефа ІІ. ",(032) 275-76-32,office@meduniv.lviv.ua,Державна,http://www.meduniv.lviv.ua,
Миколаївський національний аграрний університет,Миколаїв,Миколаївська,"Утворення університету розпочалося у 1984 році, коли в м. Миколаєві було організовано філію Одеського сільськогосподарського інституту, у зв’язку з великою потребою в фахівцях сільськогосподарського виробництва вищої кваліфікації, а саме: агрономах, зооінженерах, інженерах, економістах. У 1991 році контингент студентів складав 2232 особи, а навчальний процес забезпечували 126 викладачів (сьогодні більш ніж 8000 студентів та 427 викладачів). Тому постало питання про перетворення філії Одеського сільськогосподарського інституту в самостійний заклад вищої освіти й статус інституту було отримано. У 1997 році за рішенням Державної акредитаційної комісії України інституту надано найвищий ІV рівень акредитації, а у 1999 році – статус академії.",+38(0512) 40-91-31,pk@mnau.edu.ua; rector@mnau.edu.ua,Державна,www.mnau.edu.ua,
Мукачівський державний університет,Мукачево,Закарпатська,"Мукачівський державний університет – вищий навчальний заклад, який динамічно розвивається та диверсифікує свою діяльність, ліцензуючи та акредитуючи нові спеціальності. Це багатопрофільний навчальний заклад, провідний центр культури, науки, освіти регіону. Основою сучасної концепції розвитку Університету є підготовка висококваліфікованих фахівців, здатних працювати в умовах ринкової економіки та переходу на інноваційний шлях розвитку. 
Нині університет – це сучасний і потужний навчально-науковий комплекс, який об’єднує 4 факультети, які забезпечують підготовку фахівців за 22 спеціальностями.
До послуг працівників та студентів університету – 4 навчальні корпуси, укомплектована наукова бібліотека (постійно поновлюється та налічує понад 150 тис. документів наукової та методичної літератури), 2 гуртожитки, комп’ютерні класи з сучасними комп’ютерами та виходом до Інтернету, студентська їдальня.","+38 (03131) 2-11-09, 2-23-55",info@msu.edu.ua,Державна,http://www.msu.edu.ua,
Національна академія Державної прикордонної служби України імені Богдана Хмельницького (військова частина 9960),Хмельницький,Хмельницька,"Національну академію засновано 14 грудня 1992 року відповідно до постанови КМУ № 700 як Інститут Прикордонних військ України.
У червні 1993 року відбувся перший випуск офіцерів-прикордонників і проведено набір курсантів на перший курс.
12 квітня 1995 року у зв’язку з необхідністю підготовки офіцерських кадрів оперативно-тактичного рівня на базі Інституту Прикордонних військ України відповідно до постанови Кабінету Міністрів України № 268 створено Академію Прикордонних військ України.
4 серпня 1995 року постановою КМУ № 602 Академії Прикордонних військ України присвоєно ім’я Богдана Хмельницького.
29 квітня 1999 року Академії Прикордонних військ України імені Богдана Хмельницького відповідно до Указу Президента України № 458/99 надано статус Національної.
У вересні 1999 року академію прийнято колективним членом Міжнародної кадрової академії Європейської мережі національних інформаційних центрів з академічного визнання та мобільності Ради Європи.
6 лютого 2002 року академії було вручено Бойовий Прапор частини.
У серпні 2003 року, у зв’язку з реформуванням Прикордонних військ України у Державну прикордонну службу України, було змінено назву навчального закладу на Національну академію Державної прикордонної служби України імені Богдана Хмельницького.
У січні 2019 року академія отримала асоційоване членство в агенції прикордонної та берегової охорони FRONTEX.",(0382) 65-27-09,nadpsu@dpsu.gov.ua,Державна,https://nadpsu.edu.ua/,
"Національний технічний університет ""Харківський політехнічний інститут""",Харків,Харківська,"НТУ «ХПІ» є одним з шести університетів україни, визнаних у світі за рейтингами QS World University Ranking, The World University Rankings. Пропонує понад 130 освітніх програм за 43 спеціальностями. Більше ніж 1000 бюджетних місць на рік, міжнародне співробітництво, студентське самоврядування та стартап-рух, коворкінги, військова підготовка, сучасна бібліотека, палац студентів, 32 види спорту безкоштовно, 15 гуртожитків та база відпочинку в мальовничому містечку.","(057)700-15-64, (057)707-66-01",omsroot@kpi.kharkov.ua,Державна,www.kpi.kharkov.ua,
"Національний університет ""Запорізька політехніка""",Запоріжжя,Запорізька,"Життя кожного колективу починається з першого кроку, здійсненого ініціативними людьми, які вирішили почати нову справу. Для колективу НУ «Запорізька політехніка» таким кроком і початком складної, але яскравої історії університету була організація 1 липня 1900 р. в повітовому місті Олександрівську (з 1921 р. — Запоріжжя) середнього семикласного механіко-технічного училища з нижчою ремісничою школою при ньому. Діяльність цього училища справила значний вплив на становлення та вдосконалення професійної освіти, а згодом сприяла підготовці інженерних кадрів для України.
Олександрівське середнє семикласне механіко-технічне училище готувало техніків-механіків високого класу для промислових підприємств. Механічна, ковальська, токарна, столярна, модельна майстерні, а також відділення двигунів були оснащені новим устаткуванням, зокрема й закордонного виробництва. Цікаво, що клас для малювання оформили за зразком Академії мистецтв. Обладнання для цього завезли з Лейпцига.
18 листопада 1920 р. Олександрівське механіко-технічне училище було реорганізоване у трирічний індустріальний технікум (ОІТ) і дворічну механіко-технічну профшколу. Технікум мав права вищого навчального закладу. Технікум повинен був готувати інженерів-механіків для машинобудування. Він мав два спеціальні відділи: індустріальний (механічний, машинобудівний) та сільськогосподарський (землеробство, машинознавство). Наприкінці 20-х рр. технікум був одним із кращих інженерних навчальних закладів України. Згідно з Постановою РНК УСРР від 23 березня 1930 р., Запорізький індустріальний технікум було перейменовано на машинобудівний інститут ім. В. Я. Чубаря. З липня того ж року, за Наказом Наркомосвіти УРСР та ВРНГ УРСР № 514, його реорганізовано в Запорізький інститут сільськогосподарського машинобудування, що був підпорядкований об'єднанню «Союзсільмаш». Після закінчення інституту студенти отримували кваліфікацію за фахом інженера-механіка. Спочатку діяло чотири відділення: сільськогосподарське, тракторне, оброблення матеріалів, ливарної справи.
У важкі роки війни понад 600 студентів і викладачів вишу пішли на фронт, 52 навчалися в Артилерійській академії ім. Ф. Дзержинського, 30 закінчили прискорений курс Військової академії механізації і моторизації. Понад 300 студентів і викладачів були відзначені за виявлені ними героїзм і мужність на фронтах бойовими орденами і медалями. Понад 50 воїнів не повернулися додому….
У 1941 р. інститут був евакуйований до міста Барнаул Алтайського краю, а згодом на базі інституту створили Алтайський політехнічний інститут. Після визволення Запоріжжя від німецько-фашистських загарбників в 1944 р. був організований Запорізький автомеханічний інститут, який через три роки став Запорізьким інститутом сільськогосподарського машинобудування, а в 1957 р. був перейменований на машинобудівний інститут.","(061)764-21-41, (061)764-25-06",rector@zp.edu.ua,Державна,zp.edu.ua,
"Національний університет ""Одеська морська академія""",Одеса,Одеська,"Національний університет «Одеська морська академія» давно і добре відомий у світовому морському суспільстві. За роки існування з 1944 року заклад освіти мав різні назви: Одеське вище морехідне училище (ОВМУ), Одеське вище інженерне морське училище (ОВІМУ), Одеська державна морська академія (ОДМА), Одеська національна морська академія (ОНМА), Національний університет «Одеська морська академія» (НУОМА).
Протягом усієї історії закладом освіти забезпечувалися високий професіоналізм науково-педагогічного персоналу, відповідні міжнародним і національним вимогам стандарти освіти і практичної підготовки здобувачів освіти.
НУОМА є провідним навчальним, науковим і методичним центром, який визначає стратегію і шляхи розвитку морської освіти в Україні.
Основним завданням університету є забезпечення конкурентоспроможності випускників на світовому ринку праці. НУОМА є активним членом Міжнародної асоціації морських університетів (IAMU), Чорноморської асоціації морських інститутів (BSAMI).
Представники університету регулярно беруть участь у роботі асамблей, комітетів і підкомітетів Міжнародної морської організації (IMO) у складі офіційних делегацій України та Міжнародної асоціації морських університетів.","( 048) 793-16-72, 793-16-94",info@onma.edu.ua,Державна,www.onma.edu.ua,
"Національний університет ""Острозька академія""",Острог,Рівненська,"До послуг студентів: сучасна матеріально-технічна база, віртуальна наукова бібліотека, комп'ютерні класи, інтернет, спеціалізовані методичні кабінети, редакційно-видавничий відділ, спортивний комплекс, культурно-мистецький центр, регіональний ресурсний центр вивчення іноземних мов, участь у міжнародних обмінних програмах, можливість здобуття освіти за двома спеціальностями.
Національний університет «Острозька академія» — наступник першого закладу вищої освіти східнослов’янських народів — Острозької слов’яно-греко-латинської академії. Заснував академію у 1576 році князь Василь-Костянтин Острозький. Острозька академія припинила своє існування у 1636 році. Однак результати її діяльності не зникли безслідно. Сформований тут тип закладу вищої освіти був перенесений до Києва, звідки поширився до Молдавії та Москви. Хроніка відродження Острозької академії в незалежній Україні починається у 1994 році з Указу Президента України. У жовтні 2000 року Острозька академія отримала статус національного університету. Згідно з постановою Кабінету Міністрів України від 29 липня 2009 року № 798, НаУОА надано статус самоврядного (автономного) дослідницького національного закладу вищої освіти.
Мовою освітнього процесу Національного університету «Острозька академія» є державна (українська мова).",(03654)22949; 23454; 22949,osa@oa.edu.ua,Державна,http://www.oa.edu.ua,
"Національний університет ""Полтавська політехніка імені Юрія Кондратюка""",Полтава,Полтавська,"Національний університет «Полтавська політехніка імені Юрія Кондратюка» – це сучасний інноваційний, потужний освітній та науковий центр Полтавщини та України, центральний корпус якого – пам'ятник архітектури першої половини XIX ст. (класичний стиль) та є складовою частиною ампірного ансамблю міста Полтави.
Заснований 12 грудня 1818 року дружиною генерал-губернатора Полтавської і Чернігівської губерній М.Г. Рєпніна Варварою Олексіївною інститут шляхетних дівчат у Полтаві став першим серед губернських міст середнім навчальним закладом закритого типу для жінок-дворянок.
Протягом своєї історії університет динамічно трансформувався в багатогалузевий університет класичного типу, в якому навчається близько 8500 студентів, серед яких – понад 500 іноземних громадян
В університеті діють 8 навчально-наукових інститути, факультети та фахові коледжі та здійснюється підготовка за більше ніж 110 освітніми програмами. Університет має 9 навчальних корпусів; понад 120 навчальних і науково-дослідницьких лабораторій та комп’ютерних класів; науково-технічна бібліотека; сучасні аудиторії з мультимедійним обладнанням, Free WI-FI покриття по всій території кампусу університету та студентського містечка, обладнані укриття.","(0532)60-87-30, (0532)56-98-94","rector@nupp.edu.ua, kanc@nupp.edu.ua ;",Державна,www.nupp.edu.ua,
"Національний університет ""Чернігівська політехніка""",Чернігів,Чернігівська,"1960 Розпорядження Ради Міністрів Української РСР № 651 від 11 травня, у  місті Чернігові організований загальнотехнічний факультет, підпорядкований Київському політехнічному інституту. Декан факультету – авторитетний працівник вищої школи Е.Г. Калита.
1965 Наказ Міністра вищої і середньої спеціальної освіти УРСР № 99 від 23 лютого 1965 р., з 1 вересня створено Чернігівський філіал Київського політехнічного інституту в складі 3-х факультетів: механічного, технологічного та загальнотехнічного. Директор філіалу – Е.Г. Калита.
1965-1991 Чернігівський філіал КПІ розвивається як вищий технічний навчальний заклад, що забезпечує потреби регіону у висококваліфікованих інженерних кадрах.
Директори: кандидат технічних наук, доцент П.О. Руденко (1982 – 1986), доктор технічних наук, професор, заслужений діяч науки і техніки України О.І. Денисов (1986 – 2009).
1991 Чернігівський філіал КПІ стає самостійним вищим навчальним закладом як Чернігівський технологічний інститут.
1999 Чернігівський технологічний інститут отримує найвищий статус освітянської кваліфікації і стає Чернігівським державним технологічним університетом.
З 2010 р. університет очолює доктор економічних наук, професор, заслужений діяч науки і техніки України С.М. Шкарлет.
Згідно з розпорядженням Кабінету Міністрів України від 13.07.2011 року № 707 до складу ЧДТУ входить Чернігівський державний інститут права, соціальних технологій та праці (з 1969 р. – єдиний в Україні навчальний заклад, який готував фахівців для системи соціального захисту населення).
Наказом Міністерства освіти і науки, молоді та спорту України від 11.08.2011 року № 971 Чернігівський комерційний технікум приєднаний до Чернігівського державного технологічного університету як структурний підрозділ Університету – Коледж економіки і технологій Університету.",(0462) 665-103,cstu@stu.cn.ua,Державна,stu.cn.ua,
"Національний університет ""Чернігівський колегіум"" імені Т.Г. Шевченка",Чернігів,Чернігівська,"Національний університет ""Чернігівський колегіум"" імені Т.Г.Шевченка — один з найвідоміших серед вищих навчальних закладів освіти в Україні.
Його родовід сягає сивої давнини — Чернігівського колегіуму, заснованого у 1700 році за взірцем Києво-Могилянської академії. Колегіум відіграв важливу роль у становленні вищої педагогічної освіти на північному Лівобережжі України. Педагогічні ідеї його засновників Л.Барановича, І.Максимовича, А.Стаховського, І.Галятовського увійшли до скарбниці педагогічної думки і заклали підвалини вищої освіти. У 1786 році колегіум було реорганізовано в духовну семінарію, яка, як і її попередник, продовжила підготовку вчителів. Нові соціально-економічні умови і культурні запити суспільства привели на початку XX ст. до суттєвої перебудови системи педагогічної освіти. Естафету в підготовці вчителів перейняв Учительський інститут (1916), який розпочав свою діяльність як навчальний заклад вище-середнього типу зі словесно-історичним, фізико-математичним і природничо-географічним відділами. Новостворений навчальний заклад успадкував унікальну бібліотеку духовної семінарії. Крім того, в його стінах продовжили роботу найбільш досвідчені викладачі семінарії.",(04622)3-22-54,chnpu@chnpu.edu.ua,Державна,http://chnpu.edu.ua,
Національний університет водного господарства та природокористування,Рівне,Рівненська,"Національний університет біоресурсів і природокористування України є одним із провідних закладів освіти, науки і культури в Україні. На 16 факультетах та ННІ його базового закладу (м. Київ) та в 11 регіональних вищих навчальних закладах І-ІІІ рівнів акредитації навчається понад 31 тис. студентів та понад 600 аспірантів, докторантів і пошукувачів.
Навчальний процес і наукові дослідження НУБІП України забезпечують понад 3000 науково-педагогічних і педагогічних працівників, у тому числі 300 — професорів і докторів наук, понад 1500 — доцентів і кандидатів наук.
Освітня діяльність в універcитеті мaє суcпільний характeр, заxищена від втpучання політичниx паpтій тa громадcьких і релігійниx організацій.
","(0362) 63-30-98, 63-32-09",mail@nuwm.edu.ua,Державна,https://nuwm.edu.ua,
Національний університет кораблебудування імені адмірала Макарова,Миколаїв,Миколаївська,"У кінці XVIII століття спочатку у Херсоні, потім у Миколаєві відкриваються навчальні заклади, пов’язані з навігацією і корабельною архітектурою. До питання про організацію установ технічної освіти на півдні України в кінці XIX століття Міська Дума Миколаєва зверталася неодноразово, але у зв’язку з різними об’єктивними і суб’єктивними причинами ці спроби виявилися невдалими. Спочатку, замість Миколаєва, вищий навчальний заклад був створений в Одесі (1865 р.), потім у Харкові (1868 р.) та у Варшаві (1898 р.). У 1897-1900 рр. в Миколаєві для реалізації програми будівництва броненосного флоту зводяться нові заводи. Виникає необхідність підготовки великої кількості технічних фахівців середньої ланки.
Для вирішення цього завдання у 1902 році було відкрито середнє механіко-технічне училище. Активну участь у його створенні взяв учений-кораблебудівник того часу Костянтин Петрович Боклевський, один з творців науки про проектування корабля.
У 1917 році середнє механіко-технічне училище перетворено в Миколаївське політехнічне училище. У 1920 р. в ході реорганізації радянської системи народної освіти, Миколаївське політехнічне училище перетворено в технікум імені К. Тімірязєва на правах вищого навчального закладу, а його випускникам присвоювалась кваліфікація інженера. У 1925 р. політехнічний технікум реорганізується в індустріальний, а в 1927 р. він стає кораблебудівним.
У 1929 р. Миколаївський кораблебудівний технікум було об’єднано з Миколаївським вечірнім робітничим технікумом. Цей заклад отримав назву Миколаївського машинобудівного інституту, який у 1930 р. був перейменований у Миколаївський кораблебудівний інститут (МКІ).",+38(0512) 42-42-80,university@nuos.edu.ua,Державна,www.nuos.edu.ua,
Національний університет цивільного захисту України,Черкаси,Черкаська,"Національний університет цивільного захисту України як заклад вищої освіти проводить підготовку фахівців як для сфери цивільної безпеки так і інших сфер економічної діяльності. Здійснення довузівської підготовки в університеті передбачає поглиблене вивчення за шкільною програмою української мови та літератури, математики та фізичного виховання. Здійснюється ознайомлення абітурієнтів з особливостями майбутньої професійної діяльності, з матеріально-технічною базою аварійно-рятувальних підрозділів університету. Підготовка абітурієнтів на курсах довузівської підготовки Національного університету цивільного захисту України відбувається за вечірньою формою навчання (трьохмісячна програма) за рахунок коштів фізичних або юридичних осіб. По закінченні занять особам, які в рік вступу успішно закінчили курси довузівської підготовки при НУЦЗ України, для вступників на спеціальності «Цивільна безпека» та «Пожежна безпека» до рейтингу додається до 10 балів.",(0472) 55-09-53,nuczu@dsns.gov.ua,Державна,www.nuczu.edu.ua,
Національний фармацевтичний університет,Харків,Харківська,"Започаткування вищої фармацевтичної освіти на Харківщині сягає 1805 р., коли було відкрито Харківський імператорський університет. У цьому ж році Вчена рада медичного факультету отримує право проводити іспити на одержання фармацевтичного звання та присвоєння за їх результатами ступенів гезеля (аптекарського помічника), провізора та аптекаря. У 1812 р. на базі хімічної лабораторії університету було відкрито фармацевтичну лабораторію, завдяки чому студенти та особи, які готувалися до іспитів на одержання фармацевтичного звання, мали можливість отримувати знання з фармації, фармакогнозії, судово-медичного аналізу та фізіологічної хімії.
",(057) 706 35 81,mail@nuph.edu.ua,Державна,nuph.edu.ua,
Національний юридичний університет імені Ярослава Мудрого,Харків,Харківська,"Національний юридичний університет імені Ярослава Мудрого — топовий дослідний заклад вищої освіти ІV рівня акредитації, який знаходиться серед лідерів національних рейтингів, а також  має численні нагороди від зарубіжних та міжнародних інституцій.
За час свого існування Університет створив класичну систему вищої юридичної освіти та зміг зайняти лідерські позиції у сфері підготовки правників. Має найбільший ліцензований обсяг з підготовки фахівців у галузі права.
Наші викладачі — успішні практики, талановиті науковці, правники нового часу, які завжди тримають руку на пульсі будь-яких перетворень і тісно співпрацюють з державними інституціями всіх рівнів.
Випускники НЮУ імені Ярослава Мудрого посідають керівні посади в приватних та державних компаніях, присутні у складі Конституційного суду України (10 з 18 суддів), Верховного суду України (59 суддів), Вищого антикорупційного суду (11 судів із 39), Генеральної прокуратури України та обласних прокуратур (13 з 24 очільників), Верховної Ради України тощо.","+380 97 237-2454, +380 50 257-6919",kancel@nlu.edu.ua,Державна,http://nlu.edu.ua/,
Ніжинський державний університет імені Миколи Гоголя,Ніжин,Чернігівська,"Ніжинський державний університет імені Миколи Гоголя, заснований у 1805 році як Гімназія вищих наук князя І. Безбородька, є одним з найстаріших навчальних закладів України.
Згідно з розпорядженням Кабінету Міністрів України № 744-р від 15 жовтня 2004 р. на базі Ніжинського державного педагогічного університету імені М. В. Гоголя утворено Ніжинський державний університет імені Миколи Гоголя.
До структури університету входять 2 факультети та 1 навчально-науковий інститут:
Факультет філології, історії та політико-юридичних наук.
Факультет педагогіки, психології, соціальної роботи та мистецтв.
Навчально-науковий інститут природничо-математичних, медико-біологічних наук та інформаційних технологій.
Університет готує фахівців за трьома освітніми рівнями: першим (бакалаврським), другим (магістерським) та третім (освітньо-науковим) денної і заочної форм навчання.
Термін навчання: бакалавр — 4 роки, магістр — 1,4 та 1,9 роки.
Загальний контингент здобувачів вищої освіти за денною та заочною формами навчання складає понад дві тисячі осіб.",(04631) 7-19-22,ndu@ndu.edu.ua,Державна,www.ndu.edu.ua,
Одеська державна академія будівництва та архітектури,Одеса,Одеська,"Ринок освітніх послуг в даний час дуже широкий, а спеціальність інженера-будівельника унікальна. Одеська державна академія будівництва і архітектури є кращим будівельним закладом вищої освіти на півдні України і випускає фахівців, затребуваних не тільки сьогодні, але і найближчі десятки років. 
Академія включає в себе 5 інститутів, центри доакадемічної і післядипломної освіти, 13 спеціальностей, 29 освітніх програм і готує висококласних професіоналів, що здібні керувати будівельною компанією та її фінансовими ресурсами, проектувати, оцінювати і створювати будівельні об'єкти.
ОДАБА здійснює міжнародне співробітництво з понад 40 закладами вищої освіти європейських та інших країн, зокрема Університетом Північ (м. Вараждін, Хорватія), Гданським технологічним та Вроцлавським університетами (Польща), Університетом Пітешти (м. Пітешти, Румунія), Словацьким технологічним університетом (м. Братислава, Словаччина), Флорентійським університетом (Італія), Політехнічним університетом у м. Валенсія (Іспанія), Бранденбурзький технологічний університет (Німеччина), Університетом Айдин Аднана Мендереса (м. Айдин, Туреччина). ОДАБА є постійним учасником міжнародних програм: TEMPUS, Erasmus+, DAAD, FULBRIGHT, Mevlana. Студенти академії можуть на протязі семестру навчатися в іноземному університеті та отримувати стипендію у рамках програм академічної мобільності. Програма подвійних дипломів діє з Національної Вищої Архітектурної школою у місті Марсель (Франція).","(048)7233342,7234092,7236904",list@ogasa.org.ua,Державна,http://odaba.edu.ua,
Одеська національна музична академія імені А.В. Нежданової,Одеса,Одеська,"Одеська консерваторія (з 2012 року – Одеська національна музична академія імені А. В. Нежданової) була створена 8 вересня 1913 року. Залучення видатних педагогів-музикантів з Італії, Польщі, Чехії, Німеччини, Австрії забезпечило швидкий розвиток Одеської консерваторії.
Знаком європейського визнання Одеської консерваторії став її вступ до Асоціації Європейських музичних академій і консерваторій у 1999 році.
Одеська консерваторія стала справжнім Центром музичного мистецтва, культури й науки Півдня України, центром підготовки висококваліфікованих музикантів, співаків, композиторів, музичних науковців. 2000 року Одеська державна музична академія імені А.В. Нежданової введена в реєстр вищих навчальних закладів України і ФРН – членів міжурядової Угоди про співпрацю.
Академія проводить підготовку фахівців за спеціальністю «Музичне мистецтво» ступенів бакалавр, магістр, аспірантура, докторантура з усіх академічних музичних фахів: виконавців, музикознавців, композиторів та за спеціальністю «Культурологія» ступенів бакалавр, магістр, аспірантура.",(048) 726 78 76,muse@odma.edu.ua,Державна,www.odma.edu.ua,
Одеський національний економічний університет,Одеса,Одеська,"Одеський національний економічний університет — один із провідних вищих навчальних закладів України, який засновано у 1921 році для підготовки висококваліфікованих фахівців з економіки та проведення досліджень усього спектру економічних проблем.
Сьогодні Одеський національний економічний університет готує висококваліфікованих професіоналів за 12 економічними спеціальностями та 24 освітніми програмами (спеціалізаціями). Підготовку студентів здійснюють 5 факультетів та 22 кафедри університету.
Професорсько-викладацький склад університету налічує більше 500 співробітників. З яких 224 мають науковий ступінь кандидата наук, а 33 — доктора наук. В університеті працює 9 академіків галузевих академій, 4 заслужених працівників освіти, діячі науки й техніки, що дозволяє успішно виконувати фундаментальні та прикладні наукові дослідження з пріоритетних напрямків розвитку науки й техніки.",(048)723-61-58,mail@oneu.edu.ua,Державна,http://oneu.edu.ua,
Одеський національний технологічний університет,Одеса,Одеська,"Одеський національний технологічний університет заснований на кращих інженерних традиціях з 1902 року, відомий своєю високою якістю освіти. Заклад пропонує вищу освіту, що відповідає європейським стандартам, що дає студентам можливість отримати високоякісні знання та навички.
До складу університету входять 6 навчально-наукових інститутів, 4 фахові коледжі, 33 кафедри, сучасна науково-технічна бібліотека з загальним бібліотечним фондом понад 1 млн. примірників, наукові й виробничі підрозділи. В університеті навчається близько 5 тисяч студентів за 22 спеціальностями та 102 освітніми програми, функціонує аспірантура й докторантура.
Одеський національний технологічний університет є відмінним трампліном до успішної кар’єри в сфері технологій, інженерії та науки. З метою сприяння працевлаштуванню випускників в університеті двічі на рік проводяться «Ярмарки вакансій». Студенти мають унікальну можливість проходити практику й знаходити роботу як в Україні, так і за кордоном, завдяки розвинутій системі підтримки працевлаштування.","+ 38 (048)725-83-26, 253284, 291124, 253284",info@ontu.edu.ua,Державна,https://www.ontu.edu.ua,
Одеський національний університет імені І. І. Мечникова,Одеса,Одеська,"Одеський національний університет імені І.І. Мечникова, перший вищий навчальний заклад Півдня України, вже понад 150 років дарує успішні кар’єри своїм випускникам. Сто тридцять тисячвипускників ОНУ прославили своїми досягненнями країну, місто та alma mater.
Поєднання класичних традицій з сучасними технологіями освіти дозволяє студентамуніверситету - а їх понад 10600- вважати диплом кожної з 42 спеціальностей університету фактичною «перепусткою в життя». Більшість випускників ОНУ отримують дипломи вже працевлаштованими. Роботодавці знаходять майбутніх співробітників ще на студентських лавах - адже саме студенти ОНУ є переможцями престижних українських і міжнародних інтелектуальних змагань.
ОНУ співпрацює зі 175 університетами різних країн, є членом Європейської і Всесвітньої асоціацій університетів.","+38(048) 723-52-54,233515",rector@onu.edu.ua,Державна,http//www.onu.edu.ua,
Первомайський навчально-науковий інститут Національного університету кораблебудування імені адмірала Макарова,Первомайськ,Миколаївська,"14 серпня 1987 року була створена партійна організація у складі 17 комуністів. Секретарем партійного бюро обрана Л.В. Кузьменко.
Профспілкова організація працівників створена 20 серпня 1987 року. Головою профкому був обраний П.З. Авілкін.
1 вересня 1987 року відбулося урочисте відкриття технікуму, в якому взяли участь перший секретар міськкому компартії України П.Т. Жарський, представники Мінважкмаша СРСР В.Ф. Шамонов та Т.І. Іщенко, керівники і представники підприємств, організацій і учбових закладів міста.
У вересні – жовтні 1987 року сформувались комсомольські і профспілкові організації в учбових групах. 15 вересня 1987 року відбулося перше комсомольське зібрання студентів. Секретарем комітету КСМ був обраний С.О. Титомир. Комсомольська організація працівників політехнікуму на чолі з О.Ю. Зінченко була створена 22 вересня 1987 року. Головою профкому студентів була обрана В.В. Нестеренко.
Відкриття технікуму співпало з 70-річчям Великої Жовтневої соціалістичної революції і початком вирішального етапу у перебудові радянського суспільства. Колектив викладачів, студентів, інженерно-технічних і учбово-виховних робітників покликаний зробити свій внесок у прискорення соціального і економічного розвитку країни.
У 1997 році керівники провідних підприємств міста та регіону, при активній підтримці міської та районної рад подали клопотання в Міністерство освіти і науки України про відновлення в місті підготовки спеціалістів з повною вищою освітою.
Міністерство освіти і науки спочатку створює на чолі з Українським державним морським технічним університетом навчально-науково-виробничий комплекс, а в 2002 році за погодженням з Кабінетом міністрів, на базі політехнічного коледжу створюється Первомайський політехнічний інститут.",(05161) 4 24 54,PEaSi@nuos.edu.ua,Державна,https://peasi.nuos.edu.ua/,
Поліський національний університет,Житомир,Житомирська,"Сучасна історія заснування та розвитку Житомирського національного агроекологічного університету починає свій відлік у вересні 1922 р., але цій даті передувала тривала і цікава передісторія.
Велика територіально і густо заселена (понад чотири мільйони населення) Волинська губернія у дореволюційний час для підготовки спеціалістів з аграрного сектору мала лише сім сільськогосподарських шкіл, у яких навчалося близько 300 чоловік. Ледухівська нижча сільськогосподарська школа — одна з шкіл, яка була заснована у 1899 р. в селі Ледухів Кременецького повіту.
Внаслідок підписання Ризького договору у 1921 р. західні землі України відійшли до Польщі. Школу з цієї причини було переведено в село Нова Чортория Новоград-Волинського повіту, де на її базі було створено Волинський агрономічний технікум.
Завершальним етапом формування навчального закладу є Тимчасовий статут про межові технікуми, згідно з яким названий технікум прирівнювався до вищого навчального закладу, а дату 1 вересня 1922 р. стали вважати днем заснування університету.
Того ж року Волинський агротехнікум переведено до міста Житомира, де в результаті його об’єднання з технікумом землевпорядкування було створено Волинський сільськогосподарський політехнікум. До новоствореного закладу входили три факультети: землевпорядкування, агрономічний та робітфак. Студентами політехнікуму стала молодь із сімей робітників, наймитів, бідноти, середняків і трудової інтелігенції, загальною кількістю 518 осіб. Доступність навчання, висококваліфікований склад викладачів та можливість отримати гідну професію швидко зробили навчальний заклад популярним агрокультурним центром округу. У цей же час за навчальним закладом закріпляються два радгоспи: «Левківський» (153 га землі) в Житомирському та «Осники» (150 га землі) у Черняхівському районах.",(098)9925250,mail@polissiauniver.edu.ua,Державна,http://www.polissiauniver.edu.ua/,
Полтавський державний аграрний університет,Полтава,Полтавська,"Полтавський державний аграрний університет — це престижний заклад вищої освіти України, що проводить інноваційну освітню діяльність з підготовки фахівців європейського рівня як для агропромислового комплексу, так і для інших галузей національної економіки України та має розвинену інфраструктуру навчальних і науково-виробничих підрозділів, які сприяють поширенню наукових знань і проводять культурно-просвітницькі заходи.
За свою майже вікову історію ми підготували чимало висококваліфікованих спеціалістів. Випускники Університету нині обіймають керівні посади як в українських, так і в іноземних бізнес-структурах, працюють у державних органах влади та різних міністерствах України.
Щороку Університет випускає близько 1 400 кваліфікованих фахівців, серед яких є відомі аграрії, Герої України, успішні бізнесмени, політики, науковці, громадські діячі, банкіри та просто успішні люди.",(0532) 50-02-73,pdau@pdau.edu.ua,Державна,http://www.pdau.edu.ua,
Полтавський державний медичний університет,Полтава,Полтавська,"Полтавський державний медичний університет – один із найстаріших провідних закладів вищої освіти України, історія якого починається з одонтологічного факультету, створеного при Харківській медичній академії в 1921 р. Факультет став першим академічним спеціалізованим навчальним закладом для підготовки лікарів-стоматологів. У 1931 р. факультет було реорганізовано в Харківський стоматологічний інститут, який у 1967 р. переведено до м. Полтави.
Проблема підготовки зубних лікарів у Росії особливо загострилася в XIX столітті. Зуболікарська допомога хворим не надавалася через відсутність кадрів, підготовка яких не проводилася ані в Росії (до 1881 р.), ані в Україні (до 1900 р.). У зв'язку з цим видатний хірург Микола Васильович Скліфосовський на VI з'їзді природознавців і лікарів проголосив ідею щодо необхідності підготовки зубних лікарів із вищою медичною освітою на медичних факультетах університетів. Однак лише після Першої світової війни питання підготовки лікарів-стоматологів, які б надавали кваліфіковану спеціалізовану допомогу, почали активно обговорювати.
У харківських і київських медичних і зуболікарських колах проголошувалася думка про те, що кваліфіковану і спеціалізовану стоматологічну допомогу населенню України зможуть надавати тільки лікарі, які обрали професію стоматолога з самого початку, з перших кроків навчання на стоматологічних факультетах медичних інститутів або в медичних стоматологічних інститутах, де термін навчання може обмежуватися чотирма роками.
","(053) 260 20 51, 222 78 21",mail@pdmu.edu.ua,Державна,www.pdmu.edu.ua,
"Приватний вищий навчальний заклад ""Буковинський університет""",Чернівці,Чернівецька,"ПВНЗ «Буковинський університет» та Фаховий коледж ПВНЗ «Буковинський університет» запрошують на навчання у 2022 році.
Буковинський університет — заклад вищої освіти нового покоління приватної форми власності, який за чверть століття освітньої діяльності випустив понад двадцять тисяч фахівців з економіки, управління, права та інформаційних технологій.
У 2022 році університет запрошує на навчання за спеціальностями: 
 Право.
 Комп’ютерні науки.
 Фінанси, банківська справа та страхування.
 Облік і оподаткування.
Навчання відбувається в новозбудованому корпусі, просторі аудиторії якого обладнані сучасною мультимедійною та комп’ютерною технікою.
Буковинський університет тісно співпрацює з вузами Румунії, Словаччини, Сербії, Білорусії, Чехії, Польщі, Болгарії. Магістранти мають можливість навчатися за програмами «Подвійний диплом» та «Erasmus+», що є важливим досвідом на шляху професійного розвитку.","0372 55-32-07,0372 513265,510898",bukuniver@bukuniver.edu.ua,Приватна,http://www.bukuniver.edu.ua,
"Приватний вищий навчальний заклад ""Вінницький інститут конструювання одягу і підприємництва""",Вінниця,Вінницька,"Розвиток ПВНЗ «Вінницький інститут конструювання одягу і підприємництва» здійснюється із відповідністю концепції освітньої діяльності.
Освітня і наукова діяльність Інституту ґрунтується на засадах Національної стратегії розвитку освіти в Україні на 2014-2025 роки, Законів України «Про освіту», «Про вищу освіту», «Про наукову та науково-технічну діяльність» та відповідає вимогам Болонської декларації.
Основною метою діяльності Інституту є забезпечення високої якості фундаментальної і професійної підготовки фахівців для потреб легкої промисловості та фінансової сфери економіки відповідно чинного законодавства та стандартів вищої освіти, які будуть конкурентоспроможні на ринку праці.
",(043)246-69-83,vikop1992@ukr.net,Приватний,http://vikop.org.ua,
"Приватний вищий навчальний заклад ""Вінницький фінансово-економічний університет""",Вінниця,Вінницька,"За час свого створення вуз пройшов дорогу від новоствореного інституту регіональної економіки в орендованих приміщеннях, де головним чином викладачі-сумісники вели заняття зі студентами трьох спеціальностей «Правознавство», «Облік і аудит», «Менеджмент і інформаційні системи» до вищого навчального закладу, який має статус класичного університету, який постійно розвивається, має власну сильну матеріально-технічну базу, висококваліфікований професорсько-викладацький склад. 1995р. Історія створення інституту регіональної економіки та управління бере свій початок з цього року, виділившись з філії Чернігівського інституту регіональної економіки й почавши функціонувати як самостійний вищий навчальний заклад. На сьогодні він є першим і єдиним на Вінниччині самостійний вищим економічним навчальним закладом приватної форми власності. Інститут пройшов державну реєстрацію і занесений до державного реєстру вищих закладів освіти України (свідоцтво про реєстрацію № 20115030, ліцензований і акредитований за третім освітньо-кваліфікаційним рівнем, ліцензія № 005933). Вінницький інститут регіональної економіки та управління розпочав проводити навчання з найбільш сучасних спеціальностей. Лютий 1995 р. на засіданні Вченої ради інституту було прийнято рішення про створення кафедри «Правознавства» для підготовки молодших спеціалістів права. Спочатку кафедра називалась кафедрою гуманітарних і правових дисциплін, а першим її завідувачем був Бондар В.І.","+38(0432)53-36-80, +38(067)-369-98-38",rektor-vfeu@ukr.net,Приватний,http://www.vfeu.edu.ua,
"Приватний вищий навчальний заклад ""Міжнародний економіко-гуманітарний університет імені академіка Степана Дем'янчука""",Рівне,Рівненська,"Вступні випробування: конкурс сертифікатів ЗНО (або іспитів для осіб, які за умовами мають на це право) 
Термін навчання: бакалавр – 4 роки (спільні програми з Європейськими ЗВО– 3 роки), магістр – 1,5 року.
Навчання платне.
Вартість навчання за рік:
ДФН – 26500-28500 грн;
ЗФН – 18500-22500 грн.
Професорсько-викладацький склад університету заслуговує на особливу шану: вони є зразком свободи наукового мислення, педагогічного такту, толерантності, людяності та відкритості. Саме вони співпрацюватимуть з вами впродовж Ваших студентських років, задля досягнення Вашої освітньої мети.
Матеріально-технічна база: обладнані аудиторії, добре укомплектована бібліотека (постійно поповнюється та налічує 270 тисяч примірників наукової та методичної літератури); комп’ютерні класи з сучасними комп’ютерами та виходом до Інтернету, сучасне повноцифрове освітнє середовище. Ефективні методики та комунікаційні технології об’єднані навколо платформи дистанційного навчання, забезпечують студентам високий рівень професійної підготовки. Практики закордоном, участь в міжнародних освітніх програмах, грандах та проектах – робить наших студентів повноправними членами європейського освітнього простору.","(036) 223 01 86, 269 02 30",mail@megu.edu.ua,Приватна,www.megu.edu.ua,
"Приватний вищий навчальний заклад ""Тернопільський інститут соціальних та інформаційних технологій""",Тернопіль,Тернопільська,"Приватний вищий навчальний заклад «Кропивницький інститут державного та муніципального управління» заснований 15 жовтня 2013 р. з метою організації освітньої діяльності, зокрема навчальної, виховної, наукової, організаційної, культурної та методичної роботи.
Пріоритетним завданням інституту є підготовка кваліфікованих фахівців для підприємств, установ та
організацій усіх форм власності, зокрема органів державної влади, органів місцевого самоврядування,
судів, адвокатури, прокуратури, юстиції, органів внутрішніх справ, консульських установ, податкової
інспекції, митної служби, а також навчальних закладів та науково-дослідних установ.
Організація освітнього процеcу в інcтитуті відпoвідає вимoгам чинногo законодавcтва, стандаpтам вищої
оcвіти за спеціальностями, принципам акадeмічної мобільноcті студeнтів, акадeмічної свобoди тa
автонoмії вищої освіти.","(0352) 52 83 10, 52 54 74",info@tisit.edu.ua,Приватна,tisit.edu.ua,
"Приватний заклад вищої освіти ""ДНІПРОВСЬКИЙ ТЕХНОЛОГІЧНИЙ УНІВЕРСИТЕТ ""ШАГ""""",Дніпро,Дніпропетровська,"Розуміючи важливість якісної освіти, як в контексті окремої людини, так і в контексті розвитку держави, університет виник в результаті еволюційного розвитку Комп’ютерної Академії «STEP». У грудні 2018-го року Академія отримала ліцензію від Міністерства освіти і науки України (Наказ МОН №3073-л від 21.12.2018), відтак IT STEP ACADEMY стає закладом вищої освіти ІТ-спрямування.
У липні 2019 року стартувала вступна кампанія у вищі навчальні заклади, і Дніпровський технологічний університет показав успішну статистику.
1 вересня 2019 року відбулась перша урочиста посвята у студенти Університету.  
Також у вересні 2019 року розпочали навчання студенти Доуніверситетської програми підготовки, що була розроблена спеціально для школярів, які хочуть пов’язати своє майбутнє з ІТ-сферою.
У 2021 році ДТУ ШАГ проходить переліцензування Наказ МОН № 2-л від 14.01.2021р. з ліцензованим обсягом 220 місць на рік.
ДТУ ШАГ є авторизованим центром компаній Microsoft, Cisco, завдяки чому здобувачі університету протягом навчання мають змогу отримати міжнародні сертифікати від світових лідерів індустрії.
Крім того, університет приєднується до регіональної спілки ІТ Dnipro Community та спільно з провідними фахівцями ІТ-галузі створює сучасні програми, формує образ ІТ-фахівців для ІТ-компаній, стає співорганізатором важливих подій в ІТ-галузі та соціальної сфери.",+056(76)-607-91,univer.dnepr@itstep.org,Приватний,http://dtu.edu.ua,
"Приватний заклад вищої освіти ""Міжнародний класичний університет імені Пилипа Орлика""",Миколаїв,Миколаївська,"Приватний вищий заклад України з рівнем акредитації IV. Заснований в 2012 році в місті Миколаїв.В університеті є докторантура, аспірантура а також гуртожиток. Цей університет є четвертим недержавним закладом вищої освіти України, який є дійсним членом Міжнародної асоціації університетів (IAU) при ЮНЕСКО.",(0512) 57 48 62,mku.osvita@gmail.com,Приватна,www.mku.edu.ua,
"Приватний заклад вищої освіти ""Східноєвропейський університет імені Рауфа Аблязова""",Черкаси,Черкаська,"Президент Східноєвропейського університету – Наталія Рауфівна Аблязова, президент, кандидат економічних наук.
Ректор Східноєвропейського університету – Ія Борисівна Чудаева, доктор економічних наук, професор.
Східноєвропейський університет імені Рауфа Аблязова– сучасний вищий навчальний заклад України, який надає широкі можливості здобуття престижної освіти європейського рівня.
Маючи 30 річний досвід освітньої діяльності, ми гарантуємо вам якісну підготовку за обраною спеціальністю.
Гордість університету – випускники. За роки існування заклад випустив понад 40 тис. фахівців, які здобули конкурентоспроможну престижну освіту, поповнили лави української економіки і очолили керівні посади в усіх сферах та напрямах розвитку України.",(0472) 64 73 00,rauniver@suem.edu.ua,Приватна,http://suem.edu.ua,
Рівненський державний гуманітарний університет,Рівне,Рівненська,"РДГУ — це сучасний освітній та науковий центр Західної України, який поєднує глибокі гуманітарні традиції з інноваційними підходами до навчання. Ми готуємо фахівців, які не лише володіють ґрунтовними знаннями, а й здатні діяти креативно, критично мислити та змінювати світ навколо себе.
Більше ніж університет
РДГУ — це місце, де народжуються ідеї, формується лідерство та розвиваються особистості. Тут кожен студент — не просто слухач, а активний учасник освітнього процесу.
Сучасна інфраструктура
Комфортні аудиторії, сучасні лабораторії, електронні бібліотеки, коворкінги та простори для відпочинку — усе для ефективного навчання і творчості.
Практична орієнтованість
Програми навчання адаптовані до реалій ринку праці. Ми активно співпрацюємо з роботодавцями, реалізуємо стажування, практики та дуальну освіту.
Європейський вектор
РДГУ інтегрований у міжнародний освітній простір: програми академічної мобільності, міжнародні проєкти та партнерства з університетами Європи.
Гуманітарне серце Рівного
Ми зберігаємо культурну спадщину, розвиваємо мистецтво, педагогіку, психологію, соціальну сферу й філологію — все, що робить людину Людиною.","(0362) 26 78 65, 26 37 15",rectorat@rshu.edu.ua,Державна,www.rshu.edu.ua,
Тернопільський національний медичний університет імені і.Я. Горбачевського Міністерства охорони здоров`я України,Тернопіль,Тернопільська,"Тернопільський національний медичний університет імені Івана Яковича Горбачевського — провідний медичний заклад вищої освіти України, який готує висококваліфікованих фахівців медичної галузі уже понад 65 років.
Сьогодні тут здобувають освіту понад 5 тисяч українських та іноземних студентів. На медичному, фармацевтичному, стоматологічному факультетах, факультеті іноземних студентів, факультеті післядипломної освіти та в 5 навчально-наукових інститутах навчальний процес забезпечують понад 650 викладачів (90 % з них мають наукові ступені доктора філософії і доктора наук).
ТНМУ має потужну матеріально-технічну базу, що відповідає світовим стандартам підготовки фахівців. Сьогодні функціонує 20 корпусів, з них — 12
навчальних з просторими аудиторіями та сучасними лабораторіями, стоматологічний відділ університетської клініки, спорткомплекс з тренажерною залою, відремонтовані гуртожитки, сучасна бібліотека, науково-дослідні лабораторії, власне видавництво «Укрмедкнига», навчально-оздоровчий комплекс «Червона калина». Клінічні кафедри розташовані у лікувальних закладах області. Діє навчально-практичний Центр симуляційного навчання, оснащений за провідними світовими стандартами.",(0352) 525010; (0352)524492,university@tdmu.edu.ua,Державна,www.tdmu.edu.ua,
Тернопільський національний педагогічний університет імені Володимира Гнатюка,Тернопіль,Тернопільська,"Тернопільський національний педагогічний університет імені Володимира Гнатюка – в трійці кращих педагогічних вищих навчальних закладів України, лідер серед вишів за індексом прозорості, перший в області за кількістю місць державного замовлення та за кількістю працевлаштованих випускників.  
Університет надає можливість фахового оволодіння спеціальностями та спеціалізаціями, що дозволяє випускникам університету впевненіше почувати себе на ринку праці; створює умови для оволодіння інноваційними педагогічними та інформаційними технологіями.
Навчальний процес і дозвілля планується за принципом студентоцентризму.
В університеті діє комп’ютерна мережа (більше, ніж півтори тисячі комп’ютерів), укомплектовано 40  комп’ютерних класів. До послуг охочих - читальний зал електронних ресурсів, абонементи і читальні зали університетської наукової бібліотеки, зал синхронного перекладу. 
Заняття проводяться у восьми навчальних корпусах, в сучасних  навчальних аудиторіях та кабінетах. В студмістечку обладнано п’ять гуртожитків. Популярністю користуються спортивні тренажери, стадіон, легкоатлетичний манеж, шість спортивних залів, біологічний та географічний стаціонар.","035 243 58 80, 243 60 02",info@tnpu.edu.ua,Державна,www.tnpu.edu.ua,
Тернопільський національний технічний університет імені Івана Пулюя,Тернопіль,Тернопільська,"Університет розвиває програми подвійних дипломів підготовки фахівців із закладами вищої освіти Франції, Німеччини, Польщі.
Центр іноземних мов забезпечує поглиблене вивчення англійської, французької, німецької та польської мов. Центр перепідготовки та післядипломної освіти дозволяє, навчаючись на денній формі, паралельно заочно здобувати другу вищу освіту.
Центр франко-української науково-освітньої кооперації, створений за підтримки посольства Франції в Україні, реалізує спільні навчальні програми, стажування в лабораторіях провідних французьких університетів, ІТ-компаніях, у тому числі з отримання стипендії уряду Франції, організовує інтенсивні практичні курси французької мови за сучасними комунікаційними технологіями французьких університетів.
","(0352) 52 41 81, (0352) 25 49 83",univ@tntu.edu.ua,Державна,www.tntu.edu.ua,
Українська державна льотна академія,Кропивницький,Кіровоградська,"Наш науково-навчально-виробничий комплекс з 1951 року готує авіаторів. Навчання тут пройшли фахівці з 81 країни світу.
Академія здійснює цикл повної підготовки: має два факультети, військову кафедру, магістратуру, аспірантуру, докторантуру.
Тренажерні комплекси, авіаційно-технічна база, яка сертифікована відповідно до вимог Євростандарту, дозволяють на власній базі проводити, як теоретичне навчання, так і якісну практичну підготовку здобувачів освіти.",+380(52)-234-40-10,office@sfa.org.ua,Державна,,
Український державний університет залізничного транспорту,Харків,Харківська,"Український державний університет залізничного транспорту є правонаступником Харківського інституту інженерів залізничного транспорту, заснованого у 1930 р. За роки свого існування навчальний заклад декілька раз підвищував свій статус.
З квітня 2015 року навчальний заклад одержав назву Український державний університет залізничного транспорту.
За майже 90-річну історію університет підготував понад 95 тис. спеціалістів для залізничного транспорту, транспортного будівництва та інших галузей народного господарства та економіки.
Важливим напрямком діяльності університету є наукова робота та підготовка науково-педагогічних кадрів.
В університеті діють чотири спеціалізовані ради, в яких приймаються до захисту дисертації за 9 спеціальностями. Протягом 2019 р. захищено 18 кандидатських та 5 докторських дисертацій.
Науково-дослідна робота в УкрДУЗТ за напрямом технічних наук виконується в 17 Галузевих науково-дослідних лабораторіях (ГНДЛ), Центрі діагностики споруд транспортного призначення та на 25 кафедрах. За напрямом суспільних наук науково-дослідна робота забезпечується однією ГНДЛ та 10-ма кафедрами.",+38(057)7301013;+38(057)7301969; факс +38(057)7714686,info@kart.edu.ua,Державна,kart.edu.ua,
Уманський державний педагогічний університет імені Павла Тичини,Умань,Черкаська,"Уманський державний педагогічний університет імені Павла Тичини — це потужний комплекс навчально-виробничих приміщень, де створені сприятливі умови для навчання. До послуг студентів 5 навчально-лабораторних корпусів, 2 укриття на 2300 місць, навчальні майстерні, два комфортабельні студентські гуртожитки на 720 місць, агробіостанцію, бібліотеку з фондом близько 500 тис. примірників, сучасні читальні зали, 3 лінгафонні кабінети, дві студентські їдальні, спортивний комплекс, у всіх корпусах та гуртожитках студенти мають вільний доступ до мережі Інтернет. В університеті запроваджені освітньо-професійні програми для іноземних студентів. Викладання дисциплін обов’язкового чи вибіркового компонента відповідно до навчального плану проводиться англійською мовою науково-педагогічними працівниками університету, які мають значний досвід практичної та викладацької роботи; сформований кадровий резерв із англомовних викладачів, які мають рівень володіння англійською мовою В2. Станом на березень 2025 року в університеті зареєстровано 36 іноземних здобувачів вищої освіти.
Уманський державний педагогічний університет імені Павла Тичини має значний досвід інклюзивного навчання. Із метою соціальної та освітньої інтеграції студентської молоді з інвалідністю діє Центр підтримки студентів та інклюзивного туризму «Без бар’єрів».","+38(047)443-45-82, +38(047)445-23-03",post@udpu.edu.ua,Державна,https://udpu.edu.ua,
Уманський національний університет,Умань,Черкаська,"Уманський національний університет садівництва – заклад вищої освіти, що здійснює освітню, наукову, інноваційну, культурно-просвітницьку діяльність; є візитівкою міста та флагманом аграрної освіти не лише Черкащини, а й усієї Україні. Заснований у 1844 році в м. Одеса як Головне училище садівництва, протягом усього періоду функціонування зазнав низки прогресивних перетворень, перебуваючи завжди серед закладів вищої освіти. 
Орієнтований на європейські стандарти освіти, Уманський національний університет садівництва має потужну науково-технічну та навчальну бази, що формувалися впродовж усього періоду його становлення й удосконалюються з року в рік; багату на унікальні старовинні видання та сучасну літературу наукову бібліотеку; 23 навчально-наукові лабораторії і виробничі підрозділи з прогресивним обладнанням. 
У структурі університету:  сім відокремлених структурних підрозділів – Уманський фаховий коледж технологій та бізнесу, Ананьївський аграрно-економічний фаховий коледж, Городищенський фаховий коледж, Тальнівський будівельно-економічний фаховий коледж, Тальянківський агротехнічний фаховий коледж, Чигиринський економіко-правовий фаховий коледж, Шевченківський фаховий коледж; 
","04744-46999, 46979, 04744,46989, 32011",udau@udau.edu.ua,Приватна,www.udau.edu.ua,
Університет економіки і підприємництва,Хмельницький,Хмельницька,"Історія Університету економіки і підприємництва розпочалася у 1993 році як Хмельницький економічний філіал Одеського інституту підприємництва і права під керівництвом кандидат педагогічних наук, доцента Капітанця Олександра Миколайовича. За час свого існування він пройшов складний шлях розвитку від маленького економічного інституту до університету.
У січні 1997 року комісією Міністерства освіти України була перевірена діяльність Хмельницького інституту економіки і підприємництва на предмет виконання ним умов ліцензування та його спроможності щодо збільшення ліцензованого обсягу набору з існуючих спеціальностей. Було зроблено позитивні висновки з усіх перевірених питань.
03 квітня 1997 року рішенням Державної акредитаційної комісії Міносвіти України збільшено ліцензований обсяг для підготовки за ІІІ рівнем акредитації спеціалістів з напряму 0501 «Економіка і підприємництво» за спеціальністю 7.050107 «Економіка підприємства» та за напрямом 0502 «Менеджмент» із спеціальності 7.050201 «Менеджмент у виробничій сфері.
У червні 1999 року Державною акредитаційнаою комісією Міністерства освіти України акредитувано підготовку спеціалістів з економіки підприємства.
В 2000 році акредитовано спеціальність 6.050200 «Менеджмент організацій».
Реалізуючи положення Концепції безперервної ступеневої системи вищої освіти, інститут на базі відділення підготовки молодших спеціалістів із 2000 року розпочав підготовку фахівців освітньо-кваліфікаційного рівня «молодший спеціаліст» на основі базової загальної середньої освіти з напряму 0501 «Економіка і підприємництво» за спеціальностями: 5.050107 «Економіка підприємства» та 5.050111 «Бухгалтерський облік».","+38 067 916 36 50, +38 067 771 34 31",uniepkm@gmail.com,Приватна,http:/ www.uniep.km.uа,
Університет митної справи та фінансів,Дніпро,Дніпропетровська,"Вищий спеціалізований навчальний заклад з підготовки фахівців у сфері митної справи. У середині 1990-х рр. митна система України вступила в якісно-новий період свого розвитку. Кількісні параметри, що були  характерні для розбудови національних митних органів у 1992-1995 рр. поступово трансформувались в якісні показники. Важливий аспект реорганізації митної служби України – створення ефективної системи професійної підготовки працівників митних органів. Одним із головних напрямків розбудови системи підготовки кадрів для Держмитслужби стало створення профільного навчального закладу.
11.06.1996 Президент України Л.Д. Кучма підписав Указ № 412/96 «Про створення Академії митної служби України». АМСУ була визначена як головна навчально-методична установа національної системи підготовки, перепідготовки та підвищення кваліфікації фахівців митної справи. Указом Президента України від 23.03.1998 № 216/98 АМСУ визначено головною навчально-методичною установою національної системи підготовки, перепідготовки та підвищення кваліфікації фахівців митної справи. Створення вищого навчального закладу відбувалося за безпосередньої участі її фундаторів: голови ДМСУ Леоніда Васильовича Деркача та першого ректора АМСУ – професора Петра Панфіловича Падуна (ректор Академії 1996-2004 рр.). В АМСУ було сформовано висококваліфікований кадровий потенціал, розроблено навчально-методичне забезпечення з урахуванням митного спрямування, організовано науково-дослідну роботу, відкрито аспірантуру, комп’ютеризовано навчальний процес із використанням мережі Інтернет, створено видавничу базу, сформовано бібліотеку з найсучаснішим фондом навчальної та наукової літератури, зміцнено матеріально-технічну базу. Усе це створило умови для акредитації Академії відповідно до рішення Державної акредитаційної комісії від 13 квітня 2004 р. за ІІІ освітнім рівнем акредитації.",(056)745 55 96,university.msf@gmail.com,Державна,umsf.dp.ua,
Харківська державна академія дизайну і мистецтв,Харків,Харківська,"Матеріально-технічна база: 3 навчальні корпуси, 18 лабораторій та навчальних майстерень, гуртожиток, 4 комп'ютерних класи, бібліотека (понад 140 000 одиниць), музей, мистецтвознавчий центр «Академія», арт-центр «Hudpromloft».
Академія видає періодичні наукові видання, які включено до переліку видань ВАК України та міжнародних наукометричних баз.
Фахівцями академії підтримуються веб-ресурси в глобальній мережі Інтернет.
Академією започатковано мистецькі заходи, найбільш значущі з них: Міжнародний форум «Дизайн-освіта»; Всеукраїнський конкурс академічного рисунка; Міжнародне триєнале «4-й Блок»; щорічна Всеукраїнська студентська олімпіада з дизайну, щорічна виставка творчих робіт викладачів, співробітників та студентів закладів вищої освіти Харківщини тощо.
Академія є членом Європейської ліги ВНЗ мистецтв, має творчі, освітянські та наукoві зв'язки з ВНЗ Пoльщі, Німeччини, Фpанції, Вeликої Бpитанії, Нідeрландів, Хоpватії, Грeції, США, Китaю, Литви, Ітaлії, Турeччини і мaє наміp розшиpювати цю співпpацю надaлі.",+38 (057) 706-15-60,academy@ksada.edu.ua,Державна,http://www.ksada.org,
Харківська державна академія культури,Харків,Харківська,"Харківська державна академія культури (ХДАК) - це заклад вищої освіти загальнодержавної форми власності, підпорядкований Міністерству культури України. ХДАК створена постановою Кабінету Міністрів України від 08 червня 1998 р. за № 818 на базі ліквідованого Харківського державного інституту культури, який був першим закладом вищої освіти такого типу в Україні (Рішення Раднаркому України від 10.09.1929 р., протокол № 41/645). Свідоцтво про державну реєстрацію ХДАК було видане виконавчим комітетом Харківської міської ради за № 079438 від 27.07.1998 р. ХДАК внесена до Державного реєстру навчальних закладів України загальнодержавної форми власності і здійснює освітню діяльність на підставі ліцензії Міністерства освіти і науки України АВ № 529688 від 26.08.2010 р. Академія сьогодні – це сучасний заклад вищої освіти четвертого рівня акредитації, лідер бібліотечно-інформаційної та культурологічної освіти. Академія готує бакалаврів і магістрів за 16 напрямами та спеціальностями 7-ми галузей знань: «культура і мистецтво», «гуманітарні науки», «соціальні та поведінкові науки», «журналістика», «управління та адміністрування», «соціальна робота», «сфера обслуговування». Навчально-виховний процес забезпечують 7 факультетів, 29 кафедр, на яких працюють понад 200 штатних викладачів, серед них понад 40 докторів наук, професорів, народних і заслужених артистів України, заслужених діячів мистецтв та працівників культури України. Кількість викладачів, які мають наукові ступені, вчені звання, державні почесні звання, становить понад 70%.",(057) 731-13-88,xdak-office@ukr.net,Державна,www.ic.ac.kharkov.ua,
Хмельницька гуманітарно-педагогічна академія,Хмельницький,Хмельницька,"Хмельницька гуманітарно-педагогічна академія – один з найдавніших навчальних закладів Поділля. З часу відкриття педагогічних курсів у м. Проскурові в 1921 р., заклад істотно змінився. Сто років, поступово розвиваючись з педкурсів у педтехнікум, педучилище, педагогічний коледж, гуманітарно-педагогічний інститут, гуманітарно-педагогічна академія перебувала й перебуває у центрі подій освітнього життя України на різних етапах її історичної минувшини. 
Заклад зазнав реформуючих процесів, що відбувалися в системі вітчизняної освіти. Сьогодні гуманітарно-педагогічна академія – один із провідних вузів Поділля. Підготовка спеціалістів ведеться за рівнем фахової передвищої освіти, I (бакалаврським), II (магістерським), III (освітньо-науковим) рівнями вищої освіти.
","(0382) 79 53 55, 79 59 45, 79 51 68",kgpa@ukr.net,Комунальна,http://www.kgpa.km.ua,
Хмельницький національний університет,Хмельницький,Хмельницька,"Хмельницький національний університет — найбільший та найпрестижніший на Поділлі заклад вищої освіти. З часу створення він пройшов шлях від загальнотехнічного факультету Українського поліграфічного інституту імені Івана Федорова до провідного класичного багатопрофільного університету, що має статус національного, з європейським рівнем підготовки фахівців та потужним професорсько-викладацьким потенціалом, модернізованою матеріально-технічною базою та сучасними інноваційними технологіями навчання.
Особливе місце у діяльності закладу посідає міжнародна співпраця, спрямована на інтеграцію університету в європейський і світовий освітній та науковий простір. ХНУ співпрацює більш ніж зі 100 закладами вищої освіти, науковими установами, організаціями та фондами з Австрії, Бельгії, Литви, Нідерландів, Німеччини, Польщі, Словаччини, США, Франції та інших країн, що забезпечує європейські та світові стандарти якості освіти та значно розширює горизонти діяльності. Навчальний заклад бере активну участь у міжнародних конференціях, програмах обміну студентами, викладачами та науковцями.",+380(38)-267-27-55,centr@khmnu.edu.ua,Державна,https://khmnu.edu.ua,
Центральноукраїнський державний університет імені Володимира Винниченка,Кропивницький,Кіровоградська,"Центральноукраїнський державний університет імені Володимира Винниченка – це один з провідних класичних закладів вищої освіти з понад 100-річною історією. Щороку університет входить до Топ-100 найпопулярніших серед абітурієнтів.
Наші студенти беруть участь у міжнародних проєктах, стажуваннях і грантових програмах, а також гідно представляють регіон на всеукраїнських і світових аренах у спорті та мистецтві.
У закладі активно розвивається студентське самоврядування та діє власне студентське медіа «Шепіт». На базі університету функціонують коворкінг «Vynnychenkos Kowo Сenter», мистецька резиденція «Хвиля», археологічний музей та музей природи, психологічна служба, спортивні зали та майданчики.
Ми пропонуємо навчання за всіма рівнями вищої освіти: бакалавр, магістр, доктор філософії, доктор наук.
З 2025 року при університеті розпочинає роботу фаховий коледж «Alma Mater Plus».
Ми маємо сучасне інклюзивне освітнє середовище, що поєднує навчальні лабораторії, бібліотеку, цифровий простір, а також комфортні гуртожитки. Університет Володимира Винниченка – це впевнений крок до успішної кар’єри.","+38(0522)320889, 248544",mails@cuspu.edu.ua,Державна,https://cusu.edu.ua,
Черкаський державний технологічний університет,Черкаси,Черкаська,"Матеріально-технічна база: 7 навчальних корпусів (з них 2 корпуси спортивного комплексу), лабораторно-навчальний корпус, 4 гуртожитки, комп’ютерні класи, бібліотека, стадіон, кафе-буфети, їдальня, 2 бази відпочинку (на березі Чорного моря (м. Очаків) та на річці Рось).
Черкаський державний технологічний університет — це флагман освіти і науки в регіоні по формуванню нової генерації України, збагаченої духовним надбанням та високими професійними навичками.
Університет співпрацює з багатьма зарубіжними навчальними закладами, такими як Лінчопінгським університетом (Швеція), Копенгагенським інститутом Ерстеда (Данія), Страсбурзьким університетом (Франція), Констанцьким університетом та Дрезденською гірничою академією (Німеччина), що створюютє позитивний імідж українських вчених у всьому світі і сприяють підняттю престижу вузу.","0472-71-00-94, 0472-51-36-72",rector@chdtu.edu.ua,Державна,www.chdtu.edu.ua,
Черкаський національний університет імені Богдана Хмельницького,Черкаси,Черкаська,"У 2024 році у міжнародному рейтингу Times Higher Education University Impact Rankings ЧНУ зайняв 4 місце серед українських ЗВО та 1001 у світі. 
У 2024 році ЧНУ імені Богдана Хмельницького посів 42 місце у міжнародному рейтингу закладів вищої освіти «World University / Institution Rankings» серед 206 українських університетів. Рейтинг закладів вищої освіти базується на значеннях індексу Гірша, i10-індексу та загальній кількості цитувань науковців ЗВО, профілі яких є в Google Scholar. Найбільш успішним дослідником серед науково-педагогічних працівників ЧНУ за рейтингом «AD Scientific Index» доктор фізико-математичних наук, професор кафедри фізики Андрій Гусак.","(0472) 37-21-42, 35-44-63","cic@cdu.edu.ua, cic@univer.cherkassy.ua",Державна,www.cdu.edu.ua,
Чернівецький навчально-науковий юридичний інститут Національного університету «Одеська юридична академія»,Чернівці,Чернівецька,"Національний університет «Одеська морська академія» давно і добре відомий у світовому морському суспільстві. За роки існування з 1944 року заклад освіти мав різні назви: Одеське вище морехідне училище (ОВМУ), Одеське вище інженерне морське училище (ОВІМУ), Одеська державна морська академія (ОДМА), Одеська національна морська академія (ОНМА), Національний університет «Одеська морська академія» (НУОМА).
Протягом усієї історії закладом освіти забезпечувалися високий професіоналізм науково-педагогічного персоналу, відповідні міжнародним і національним вимогам стандарти освіти і практичної підготовки здобувачів освіти.
НУОМА є провідним навчальним, науковим і методичним центром, який визначає стратегію і шляхи розвитку морської освіти в Україні.
Основним завданням університету є забезпечення конкурентоспроможності випускників на світовому ринку праці. НУОМА є активним членом Міжнародної асоціації морських університетів (IAMU), Чорноморської асоціації морських інститутів (BSAMI).
Представники університету регулярно беруть участь у роботі асамблей, комітетів і підкомітетів Міжнародної морської організації (IMO) у складі офіційних делегацій України та Міжнародної асоціації морських університетів.",(037)255-94-49,chernivtsi.institute@gmail.com,Приватна,https://cherninstitut.com.ua/,
Чернівецький національний університет імені Юрія Федьковича,Чернівці,Чернівецька,"Чернівецький національний університет імені Юрія Федьковича — один із найстаріших класичних університетів в Україні. Розташований у величній будівлі сучасних Чернівців — комплексі, спорудженому в 1864-1882 рр. як резиденція митрополитів Буковини і Далмації за проєктом відомого австрійського архітектора чеського походження Йозефа Главки.
Указом австрійського імператора Франца-Йосифа від 31 березня 1875 р. було засновано Чернівецький університет, у тому числі й богословський греко-православний факультет — єдиний православний факультет в Австрійській імперії. 
4 жовтня 1875 р. відбулося урочисте відкриття університету, якому було надано назву Чернівецький університет ім. Франца-Йосифа.
Відкриття і подальша діяльність університету в Чернівцях надали провінційному місту європейського шарму, яким ми пишаємося й понині. Цим завдячуємо депутатові Австрійського Рейхстагу і крайового сейму, професору, доктору, у подальшому першому ректорові університету Костянтинові Томащуку. Адже саме він зумів переконати депутатів австрійського парламенту про необхідність створення університету саме в Чернівцях.",0372 52-70-29,office@chnu.edu.ua,Державна,www.chnu.edu.ua,
Чернівецький торговельно - економічний інститут Державного торговельно - економічного університету,Чернівці,Чернівецька,"Активно функціонують студентські гуртки та клуби за інтересами: туристичний клуб «Плай», наукові гуртки («Маркетолог», «Пошук», «Фінансист», «Радник бухгалтера», «Профі») та професійні школи (Школа бармена, Школа кулінарної майстерності та сервісу, Школа кондитера, Школа здорового способу життя, Школа гостинності).
Викладачі та студенти ЧТЕІ ДТЕУ мають можливість брати участь у програмах академічної мобільності Еразмус+, програмах закордонних стажувань, конференціях, круглих столах та ін. Участь у цих заходах дозволяє підвищити рівень викладання, отримати досвід навчання в іноземних закладах вищої освіти, порівняти різні аспекти освітнього процесу за кордоном та в Україні шляхом прямої участі в ньому, удосконалити власні вміння та навики, навчитися краще адаптуватися до нового середовища та налагодити нові ділові контакти.
Інститут співпрацює на договірних засадах з іноземними ЗВО з Польщі, Румунії, Австрії, Болгарії, Грузії, Латвії, Молдови, Північного Кіпру, Сербії, Чехії, Словацької республіки, Португалії, Греції та ін.",+380(37)-251-11-58,main@chtei-knteu.cv.ua,Державна,http://chite.edu.ua/,
Чортківський навчально-науковий інститут підприємництва і бізнесу Західноукраїнського національного університету,Чотків,Тернопільська,"Чортківський навчально-науковий інститут підприємництва і бізнесу ЗУНУ – віддалений структурний підрозділ Західноукраїнського національного університету, здійснює підготовку бакалаврів, магістрів відповідно до ліцензії серії АЕ № 636470 від 10.06.2015 р.
Чортківський навчально-науковий інститут підприємництва і бізнесу був створений з метою покращення навчально-виховного процесу, наближення його до місць проживання студентів у відповідності з Постановою Сенату Академії (протокол від 28.12.1994р. №1) та наказу ректора Тернопільської академії народного господарства «Про створення Чортківської філії ТАНГ» (наказ від 30.01.1995 р. №14).
Згідно із наказом Міністерства освіти і науки України від 18 червня 2001 р. № 463 Чортківську філію Тернопільської академії народного господарства з 1 вересня цього ж року було реорганізовано у Чортківський інститут підприємства та бізнесу Тернопільської академії народного господарства без права юридичної особи.
У 2005 році Чортківський інститут підприємства та бізнесу Тернопільської академії народного господарства перейменовано у Чортківський інститут підприємництва і бізнесу Тернопільського державного економічного університету, а згодом у 2006 р. – у Чортківський інститут підприємництва і бізнесу Тернопільського національного економічного університету.",+380355220849,chnnipb@wunu.edu.ua,Державна,http://chnnipb.wunu.edu.ua/,